Name,Address,City,State,Cost,web page,image,graduation_rate,acceptance_rate,description
Auburn University, Auburn University Auburn AL 36849,Auburn,AL,24000,http://www.auburn.edu/,,75,81,Welcome to where dreams become a reality| where the practical world meets inspiration. For more than 160 years| an Auburn degree has prepared a new generation of students to innovate and lead. And our results speak for themselves. Forbes calls us a “Best Value College” and Kiplinger's named us a “100 Best Values in Public Colleges.” It’s no surprise that Auburn is Alabama’s top university. While some students literally learn to fly here| all are prepared to soar.
Samford University,800 Lakeshore Dr 35229,Birmingham,AL,29000,https://www.samford.edu/,,72,83,From distinguished faculty taking a genuine interest in students' success| to offering some of the smallest class sizes of colleges and universities in the country| Samford University offers a collegial| scholarly environment that continues to receive high ratings for quality of life and instruction. The 87th oldest institution of higher learning in the United States| Samford University is a globally-engaged teaching and research university rooted firmly in its historic Christian mission.
The University of South Alabama,307 N University Blvd,Mobile,AL,15000,https://www.southalabama.edu/,,36,79,We’re the University of South Alabama. South| for short. Home to approx. 14|500 students and more than 100 academic programs| our University is a dynamic community of leaders and learners who support and challenge one another to be actively engaged citizens who advance the Gulf Coast region and the world.
Tuskegee University,1200 W Montgomery Rd,Tuskegee,AL,35000,https://www.tuskegee.edu/,,45,52,Founded in 1881| Tuskegee University is an independent and state-related institution of higher education ranked as the #1 HBCU in Alabama and #4 HBCU in the Nation by U.S. News & World Report. With a strong orientation toward disciplines which highlight the relationship between education and work force preparation in the sciences| professions and technical areas| Tuskegee University also emphasizes the importance of the liberal arts as a foundation for successful careers in all areas.
University of Alabama at Birmingham,1720 University Blvd,Birmingham,AL,17000,https://www.uab.edu/home/,,52,74,The University of Alabama at Birmingham (UAB) is a dynamic and leading teaching and research university located in Birmingham| Alabama. UAB students learn from -- and work alongside -- some of the world's top researchers| scholars| performers| and experts. With over 120 areas of study| including popular and innovative programs like digital forensics| genetics and genomic sciences| and neuroscience| UAB gives students the benefit of globally recognized faculty| exciting academic challenges| and experiences that will fully prepare them for graduate school| professional school| or a future in the job.
University of Alaska Anchorage,3211 Providence Dr,Anchorage,AK ,14000,https://www.uaa.alaska.edu/,,29,83,The University of Alaska Anchorage is the state's largest post-secondary institution. It is comprised of the Anchorage Campus located in the heart of Alaska's largest city| as well as Kenai Peninsula College| Matanuska-Susitna College| Kodiak College and Prince William Sound College| all located in some of the most beautiful places in Alaska.
University of Alaska Fairbanks,505 South Chandalar Drive,Fairbanks,AK,11000,https://www.uaf.edu/uaf/,,29,76,UAF is the only national university in Alaska| according to U.S. News and World Report's 2021 rankings. In fact| Times Higher Education ranked UAF the #1 U.S. school for quality education in their 2020 impact rankings| and among the world's best small universities in 2020.
University of Alaska Southeast,11066 Auke Lake Way,Juneau,AK ,10000,https://www.uas.alaska.edu/,,45,82,The University of Alaska Southeast (UAS) is a regional university serving all of Southeast Alaska through campuses in Juneau| Ketchikan| and Sitka. Each campus serves its own community and also contributes meaningfully to our regional university. Our foremost goal at UAS is student learning and student success. We pride ourselves on offering programs of high academic quality—both on campus and online—that meet the needs of students and the communities we serve.
Alaska Pacific University,4101 University Dr,Anchorage,AK ,21000,https://www.alaskapacific.edu/,,20,89,Attend Alaska’s only private| non-profit| fully-accredited university for FREE or less than what it would cost to attend nearly any other public or private university in Alaska or in the US.
Arizona State University,Arizona State University Downtown Phoenix Campus,Phoenix,AZ ,12000,https://www.asu.edu/,,67,86,Arizona State University is a comprehensive public research university| measured not by whom it excludes| but by whom it includes and how they succeed. ASU prepares students for success with a top-ranked honors college| research opportunities for all students| internships and entrepreneurial endeavors. When it comes to job opportunities| ASU graduates are in demand - ASU ranks #5 in the nation for producing the best-qualified graduates| according to The Wall Street Journal. When it comes to excellence| ASU has been named the #1 university in the U.S. for innovation for three consecutive years.
Benedictine University Mesa,225 E Main Mesa,Lisle,AZ ,22400,https://www.ben.edu/mesa/,,46,42,Benedictine University and the state of Arizona have embarked on a journey to provide accessible| attainable and affordable degree programs to employees and their spouses. Benedictine’s graduate| adult and professional education programs provide students with the knowledge| skills and creative problem-solving ability demanded by today’s workplace. Our delivery formats promote communication and teamwork| and our faculty are experts in their fields who are focused on helping students achieve personal and professional goals.
The University of Arizona,The University of Arizona,Tucson,AZ ,15000,https://www.arizona.edu/,,60,85,At the University of Arizona| imagination fuels all that we do. It’s what pushes us to make the unreal real| and what will inspire you as an Arizona Wildcat. Shape the world in your own unique way at one of the nation’s top research institutions that's also a best investment for academic quality and return on your tuition dollars. Choose from nearly 300 majors and align your education with your interests| values and strengths while gaining the experience to launch your dream career. This is the university that asks| what could you achieve if there was no holding back? Let your imagination run wild.
Arkansas State University,2105 East Aggie Rd,,AR ,14000,http://www.astate.edu/,,45,80,Founded in 1909| Arkansas State is the second-largest university in the state and a leader within the Delta and Mid-South region. A Carnegie Research 2 university| Arkansas State hosts the first osteopathic medical school in the state of Arkansas| NYIT’s College of Osteopathic Medicine| is home to the Arkansas Biosciences Institute| maintains a series of Heritage Site museums across the region| and in fall 2017 opened the first U.S.-style residential campus in Mexico. With Division I BCS athletics and the largest concert| convention and fine arts facilities in the region| we are the center of activity for Northeast Arkansas.
University of Arkansas,University of Arkansas,Fayetteville,AR ,16000,https://www.uark.edu/,,64,77,Located in Fayetteville| one of the nation’s top five best places to live| the University of Arkansas is a destination for students interested in business| engineering| architecture| art| education| and the humanities. Our students have access to internships with some of the world’s most famous companies. They participate in one-on-one research with renowned faculty and study abroad in more than 56 countries. They learn in small classes| led by professors passionate about the subjects they teach. And best of all| our students have the academic support and career guidance needed to prepare for success after graduation.
Arkansas Tech University,215 W O St,Russellville,AR ,12000,https://www.atu.edu/,,36,95,Arkansas Tech University is a public university in Russellville| Arkansas. The university offers programs at both baccalaureate and graduate levels in a range of fields. Arkansas Tech welcomed its first doctoral cohorts in the Summer of 2015.
California Lutheran University,60 W Olsen Rd,Thousand Oaks,CA,27000,https://www.callutheran.edu/,,72,71,As a student and alumnus of Cal Lutheran| you'll gain inroads to the nation's top employers through our fantastic career services programs. Armed with a killer resume; and the right contacts| you'll compete on a global scale in science| business| communications| the arts and a wide range of industries. We don't just talk the talk; 97% of our students are working or attending graduate school within nine months of graduation. Planning for a successful and fulfilling career is important and an education that prepares you for a changing world is one of the greatest gifts you'll ever receive.
California University of Pennsylvania,250 University Ave,California,PA,19000,https://www.calu.edu/,,48,97,Create lasting opportunities that empower people to effect meaningful change - That is what we do at California University of Pennsylvania| just south of Pittsburgh. Success of our students is our goal and inspiring and supporting students to achieve their success is our purpose. Our fingers are on the pulse of the needs of the workforce| offering over 100 undergraduate and 95 graduate career-focused degree programs| we provide the education and experiences that engage and prepare students to find their niche in the world.
Chapman University,1 University Dr,Orange,CA ,40000,https://www.chapman.edu/,,79,56,Located in the city of Orange in sunny Southern California| Chapman University is a mid-sized private university with a total undergraduate and graduate enrollment of about 10|000 students. Our comprehensive and personal education attracts students from different backgrounds and countries all over the world. Our diverse student body and small classes will help you connect across borders and backgrounds| and prepare you for an inquiring| ethical| and productive life as a global citizen.
Charles R Drew University of Medicine and Science,1731 E 120th St,Los Angeles,CA,36300,https://www.cdrewu.edu/,,32,75,Charles R Drew University of Medicine and Science is a private non-profit student centered University that is committed to cultivating diverse health professional leaders who are dedicated to social justice and health equity for underserved populations through outstanding education| research| clinical service| and community engagement. Located in the Watts-Willowbrook area of South Los Angeles| CA.
Concordia University Irvine,1530 Concordia,Irvine,CA ,27000,https://www.cui.edu/en-us,,54,71,"Concordia University Irvine prepares students for their vocations-their various callings in life. CUI offers undergraduate| graduate| and adult degree programs in a beautiful Southern California location| with online and regional cohort options. Concordia's undergraduate program is distinctive among universities in California because of its nationally recognized Core Curriculum| and its Lutheran heritage that provides a thoughtful and caring Christian community that lives out the theology of ""Grace Alone. Faith Alone."""
Dharma Realm Buddhist University,4951 Bodhi Way,Ukiah,CA,14000,https://www.drbu.edu/,,67,89,DRBU's four-year BA program in Liberal Arts puts students in direct conversations with seminal works of both Eastern and Western traditions – books that have shaped the world in which we live. Our core curriculum includes philosophy| literature| writing| language| mathematics| music| science| and language. In small| discussion-based classes| students deeply reflect on foundations of the human experience| exploring implications for both themselves and the wider world. Nestled in Ukiah valley among lush foliage and redwoods trees| theory and practice go hand-in-hand on our contemplative campus.
Dominican University of California,50 Acacia Ave,San Rafael,CA ,34000,https://www.dominican.edu/,,71,91,Dominican University of California is an independent university offering the best of the liberal arts combined with rigorous professional education. The University offers more than 50 academic programs that reflect the diversity and creativity of the faculty and students. With approximately 1|800 graduate and undergraduate students| Dominican is able to successfully blend personal attention associated with smaller schools with the academic resources of a larger university. For students interested in Applied Computer Science| our first of its kind incubation partnership with Make School in San Francisco offers a new national model for collaboration between nonprofit higher education and the private sector to position students for success in the 21st century.
Fresno Pacific University,1717 S Chestnut Ave,Fresno,CA ,21000,https://www.fresno.edu/,,72,66,Fresno Pacific is a private Christian university located in the Central Valley of California. We offer 100+ areas of study for our students. There are many opportunities available to get involved in athletics| music| intramural sports| clubs| student government| and much more! Our campus is focused on creating an atmosphere of community that develops a student both socially and academically.
Holy Names University,3500 Mountain Blvd,Oakland,CA ,23000,https://hnu.edu/?utm_source=google%20my%20business&utm_medium=google&utm_campaign=gmb,,61,63,Holy Names University (HNU) was founded by the Sisters of the Holy Names of Jesus and Mary in 1868 and sits on a sixty-acre site in the Oakland Hills with sweeping views of the San Francisco Bay. The HNU campus provides a close-knit| supportive environment that allows for rigorous learning and personal development. Students experience close partnerships with distinguished faculty and learn to question| experiment| research and sharpen professional skills. Opportunities to have fun| volunteer| assume leadership roles| and express creativity abound at HNU!
Loyola Marymount University,1 Loyola Marymount University Dr,Los Angeles,CA,40000,https://www.lmu.edu/,,83,44,Founded in 1911| LMU is a premier Catholic university rooted in the Jesuit and Marymount traditions. Our enrollment includes 6|087 undergraduate| 2|220 graduate and 1|236 law school students. Our 142-acre bluff-top campus is located in West Los Angeles and is among the nation's most beautiful and green campuses.
Marymount California University,30800 Palos Verdes Dr E,Rancho Palos Verdes,CA,25000,https://www.marymountcalifornia.edu/,,34,86,Marymount California University is a private liberal arts university in Rancho Palos Verdes| California| rooted in the Catholic faith. The school welcomes students of all faiths| backgrounds and diversity of experience to build skills for lifelong learning in a supportive community that promotes academic and career success. Students thrive in small| interactive classes guided by engaged faculty who challenge them to explore| create and imagine—as a foundation for their own personal and professional development. Ranked among the top 15 regional colleges in the West by U.S. News & World Report| Marymount offers undergraduate and graduate programs that lead to associate| bachelor’s and master’s degrees designed to prepare students for purposeful lives and careers. Students may choose an emphasis in business| criminal justice| digital communication media| psychology| accounting| management| biology or multidisciplinary studies| and add an MBA to any bachelor's degree and graduate in as little as one additional year.
Mount Saint Mary's University,12001 Chalon Rd,Los Angeles,CA,29000,https://www.msmu.edu/,,59,90,Mount Saint Mary's University offers a dynamic learning experience in the liberal arts and sciences to a diverse student body. As a Catholic college primarily for women| we are dedicated to providing a superior education enhanced by an emphasis on building leadership skills and fostering a spirit to serve others. Our measure of success is graduates who are committed to using their knowledge and skills to better themselves| their environments| and the world.
Pepperdine University,24255 Pacific Coast Hwy,Malibu,CA,35000,https://www.pepperdine.edu/,,87,32,Pepperdine is a Christian university committed to the highest standards of academic excellence and Christian values| where students are strengthened for lives of purpose| service and leadership. Consistently ranked as one of the most beautiful places to study| Pepperdine is where you're inspired to learn as you learn to inspire. Pepperdine University has top-ranked programs for graduate and undergraduate studies| with separate schools dedicated to business| education and psychology| law| liberal arts| and public policy.
Polnt Loma Nazarene University,3900 Lomaland Dr,San Diego,CA,32000,https://www.pointloma.edu/,,71,74,At Point Loma Nazarene University| we are committed to helping you fully become who you are called to be. Located on a beautiful campus in San Diego| California overlooking the Pacific Ocean| PLNU offers a dynamic and diverse community dedicated to shaping your academic| personal| and spiritual growth. With over 60 areas of study| distinguished faculty| and award-winning academic programs| you’ll be prepared for a meaningful and fulfilling career beyond graduation. Participate in faith and service opportunities| pursue your calling| and build relationships that last a lifetime as you discover how PLNU offers a blend of academics| faith| and community that's unlike anywhere else.
Santa Clara University,500 El Camino Real,Santa Clara,CA,37000,https://www.scu.edu/,,89,49,Founded in 1851| Santa Clara University sits in the heart of Silicon Valley—the world’s most innovative and entrepreneurial region. The campus houses the historic Mission Santa Clara de Asís. Ranked the No. 1 regional university in the West by U.S. News & World Report in 2018| SCU has among the best four-year graduation rates in the nation and is rated by PayScale in the top 1 percent of universities with the highest-paid graduates. With undergraduate programs in arts and sciences| business| and engineering| and six graduate programs| the curriculum blends high-tech innovation with social consciousness grounded in the Jesuit tradition.
Simpson University,2211 College View Dr,Redding,CA,24000,http://simpsonu.edu/#gsc.tab=0,,81,52,Simpson University is a Christ-centered learning community committed to developing each student in mind| faith| and character for a lifetime of meaningful work and service in a constantly changing world. As California’s only Christian university north of Sacramento| Simpson has been educating and shaping world-influencers for nearly 100 years. We are fully accredited have an enduring commitment to world service and faith-infused education in professional studies and liberal arts. Our passion is to be the university of choice for students who aspire to achieve their chosen life goals through a Christ-led| transformational and innovative education.
Soka University of America,1 University Drive,Aliso Viejo,CA,16000,https://www.soka.edu/,,90,40,Soka University of America is a private| nonprofit| four year liberal arts college offering a nonsectarian curriculum in southern California. The university's mission is to foster a steady stream of global citizens committed to living a contributive life. Soka was founded upon the principles of peace| human rights and sanctity of life. Nearly half of Soka students come from 50+ countries and 6 different continents.
Stanford University,450 Serra Mall,Stanford,CA,12000,https://www.stanford.edu/,,94,4,Stanford University is one of the world's leading teaching and research universities. Since its opening in 1891| Stanford has been dedicated to finding solutions to big challenges and to preparing students for leadership in a complex world. Stanford students come from across the United States and throughout the world| representing diverse perspectives| experiences| backgrounds and cultures. U.S. undergraduate applicants are admitted on a need-blind basis| and the university offers substantial financial aid to help families manage the costs.
The Master's University,21726 Placerita Canyon Road,Santa Clarita,CA,27000,https://www.masters.edu/,,64,67,Since 1927| The Master’s University has had the privilege of training and developing professionals around the world. With highly qualified faculty| genuine staff| and an unwavering commitment to Christ and the Word of God| The Master’s University has matured and flourished as a nationally-ranked institution dedicated to educating for lifetime of influence. With over 10 majors| including the new| one-of-a-kind Marketing Media major| 150+ in-demand careers paths| a 10:1 student-teacher ratio| and 94% of our student’s receiving financial aid| Master’s sets each graduate on the path to succeed wherever they’re placed.
University of La Verne,1950 3rd St,La Verne,CA,25000,https://laverne.edu/,,75,55,Since 1891| the University of La Verne has been dedicated to the belief that a quality| values-based education enriches the human condition by engendering service| scholarly accomplishment| and professionalism. Though decades of growth have changed its appearance and reach| La Verne has retained its sense of purpose| seeking to provide students with individual attention to spark personal growth through intellectual challenge and development.
University of Redlands,1200 E Colton Ave,Redlands,CA,26000,https://www.redlands.edu/,,74,76,Located in the heart of Southern California| the University of Redlands was established more than 100 years ago. Offering liberal arts and sciences and pre-professional program| you can explore more than 50 areas of study in the College of Arts and Sciences| School of Music| and Johnston Center for Integrative Studies. Take advantage of our experiential learning| four-week May term| over 100 study abroad destinations| and many valuable internship opportunities.
University of San Diego,5998 Alcala Park,San Diego,CA,33000,https://www.sandiego.edu/,,78,49,Envision a place at the edge of it all. Where all things converge. Envision a vantage point that informs how you see the world. Envision life at the University of San Diego. Our Toreros find their home here - on one of the nation's most beautiful college campuses| in the eighth largest city in the nation|  20 miles from the border to Mexico. As a contemporary Catholic university ranked among the nation’s top 100 colleges and universities| we're committed to academic excellence. To social justice and Changemaking. To the passions our Toreros hold and the memories they'll create on their journey toward a successful future.
University of San Francisco,2130 Fulton St,San Francisco,CA,33000,https://www.usfca.edu/,,71,64,The University of San Francisco — a private| Jesuit university — reflects the energy| diversity| and opportunities of the city that surrounds it. Founded in 1855 as the first college in San Francisco| today USF is ranked #4 in student diversity among all national universities. The university enrolls 5|854 undergraduate and 4|217 graduate students| offers more than 110 majors and minors| and boasts a network of over 118|00 alumni worldwide. USF gives students from all backgrounds an education that is intensely personal| intellectually demanding| and designed expressly to help them change the world for the better. Here| you’ll turn your learning into positive action and make a difference in communities near and far.
University of Southern California,University of Southern California,Los Angeles,CA,30000,https://www.usc.edu/,,92,11,The University of Southern California is one of the world's leading private research universities. USC's diverse curricular offerings provide extensive opportunities for interdisciplinary study| and collaboration with leading researchers in highly advanced learning environments. With a strong tradition of integrating liberal and professional education| USC fosters a vibrant culture of public service and encourages students to cross academic as well as geographic boundaries in their pursuit of knowledge.
University of the Pacific,3601 Pacific Ave,Stockton,CA,26000,https://www.pacific.edu/,,71,66,At University of the Pacific| we believe that education is best experienced when it’s personal and applied in the real world. Pacific’s student-centered approach means you’ll benefit from personalized learning| with small class sizes and professors devoted to your success on our campuses in Stockton| CA. The connections you make at Pacific| from the diverse and encouraging network of professors to classmates to working professionals| will open doors to a transformative experience in which you will learn to lead in your chosen field| gain the confidence to know you’ll succeed and impact the community around you for good. You can learn more about University of the Pacific at www.pacific.edu.
University of the West,1409 Walnut Grove Ave,Rosemead,CA,9000,https://www.uwest.edu/,,22,100,University of the West is a private| non-profit| liberal arts university located in Rosemead| California in the Los Angeles County. UWest’s unique admissions system favors a personal statement over test scores to let us know who you are and what you hope to do. If you’ve got big plans for your future| there’s a place for you at UWest. Bring your ambition and we’ll provide the rest. Let us help you take your next step toward success.
Woodbury University,7500 N Glenoaks Blvd,Burbank,CA,28000,https://woodbury.edu/,,64,66,With 26 practice-based| fully-accredited professional and liberal arts undergraduate and graduate majors| Woodbury is a non-profit institution dedicated to the student experience.
Colorado State University,Colorado State University,Fort Collins,CO,20000,https://www.colostate.edu/,,67,81,A public research university located in Fort Collins| Colorado| CSU is the proud home to over 30|000 doers| builders and makers committed to making the world a better place. Our focus rests on research| innovation and creating a more sustainable world via hands-on learning in over 200 programs of study. Students don't shy away from getting their hands dirty - over 60% of Rams take part in an internship and half are involved in a club or student organization. At CSU| we think bigger. We ask the hard questions| follow our passions| and take pride in the process as much as the result.
MSU Denver,890 Auraria Pkwy,Denver,CO,16000,https://www.msudenver.edu/,,45,61,MSU Denver empowers Colorado’s students to advance their lives and careers through high-quality| real-world education. And Roadrunners power the state economy through a network of 95|000 work-ready graduates| more than 80% of whom stay in Colorado. Based in the heart of the Mile High City| MSU Denver provides unparalleled access to internships and professional relationships that jump-start careers. Classes are taught by noted academics| national experts and industry icons. And they build hands-on learning into every course| which helps students become career-ready| critical thinkers who companies want to hire.
Naropa University,2130 Arapahoe Ave,Boulder,CO,27000,https://www.naropa.edu/,,63,99,Naropa University is a Buddhist-inspired| student-centered liberal arts university in Boulder| Colorado. A recognized leader in contemplative education| Naropa's undergraduate programs emphasize professional and personal growth| intellectual development| and contemplative practice. Through rigorous academics| faculty mentoring| contemplative practice| and community engagement| Naropa students develop the abilities to think critically| to communicate effectively| and to know their hearts and minds. The result: Graduates who live deeply fulfilling lives working to improve people's lives and the condition of our planet.
Regis University,3333 Regis Blvd,Denver,CO,24000,https://www.regis.edu/,,44,71,Robust academics| vibrant campus culture| strong Jesuit identity—put that together with Denver's spirited energy and a dash of natural Colorado beauty| and what do you get? The Regis University experience. As a Regis student| you won’t just earn a degree—you’ll become part of a worldwide community of purpose-driven leaders| deep thinkers and engaged activists. In Jesuit education| we believe that everything matters| including academic excellence| social justice| environmental stewardship and development of the whole person. As Colorado’s only Jesuit| Catholic university| we find inspiration in our faith traditions as we devise bold and modern solutions to today's challenges.
University of Colorado Boulder,University of Colorado Boulder,Boulder,CO,22000,https://www.colorado.edu/,,70,78,"CU Boulder's innovative academic programs| hands-on opportunities and rigorous course work will prepare you for a complex global society. While interacting with our faculty| which includes Nobel laureates| MacArthur ""Genius Grant"" fellows| U.S. Professor of the Year awardees and National Medal of Science winners| you'll develop a broad understanding of the world| strong leadership skills and an enhanced ability to think critically. Live in spectacular surroundings and learn in a campus environment full of extraordinary opportunities."
University of Colorado Colorado Springs,1420 Austin Bluffs Pkwy,Colorado Springs,CO,16000,https://www.uccs.edu/,,49,87,UCCS is home to more than 12|000 driven students| more than 800 experienced faculty members and more than 800 devoted staff members. On our awe-inspiring campus| we focus on providing an academically excellent environment at a value to students across the United States| and more than 80 nations. The experience our students gain at UCCS provides an incredible service to our community of Colorado Springs and the greater southern Colorado region as a whole| with UCCS contributing about $600 million each year in economic impact in El Paso County alone.
University of Colorado Denver,1201 Larimer St,Denver,CO,15000,https://www.ucdenver.edu/,,62,67,In the heart of downtown Denver| CU Denver combines innovative research and accessible education with the advantages that only a dynamic urban environment can provide. On our campus where all are welcome| we offer the quality education that the University of Colorado is known for at an exceptional value. For nearly 50 years| we have helped 100|000+ graduates achieve their goals—achieve yours too| with a degree from CU Denver.
University of Denver,2199 S University Blvd,Denver,CO,29000,https://www.du.edu/,,79,59,Founded in 1864 - just a few years after the city of Denver itself was founded - the University of Denver (DU) is one of the country's premier private universities. The University's midsize 125-acre campus| a few miles south of downtown Denver| is home to 5|754 undergraduate students hailing from all regions of the United States and 43 countries. DU offers a uniquely flexible quarter system (and a six-week winter break)| one of the top study abroad programs in the country| close access to the foothills and world-class recreational opportunities| and more than 100 undergraduate programs of study.
Central Connecticut State University,1615 Stanley St,New Britain,CT,16000,https://www2.ccsu.edu/,,53,66,Central Connecticut State University is a regional| comprehensive public university dedicated to learning in the liberal arts and sciences and to education for the professions. CCSU offers undergraduate and graduate programs through the Master's and sixth-year levels and the Ed.D. in Educational Leadership. The University is also a responsive and creative intellectual and economic resource for the people and institutions of our state's Capitol Region.
Eastern Connecticut State University,83 Windham St,Willimantic,CT,19000,https://www.easternct.edu/,,54,64,Ranked the #1 public regional university in New England| Eastern Connecticut State University offers its students degrees of difference.  Your degree from Eastern is more than a high quality academic program – you will spend time in small classes with individualized attention| live on a vibrant and lively campus| and get involved outside the classroom to enhance your leadership and collaboration skills. Nationally recognized for its undergraduate research programs| Eastern encourages all students to get involved and work closely with faculty mentors on research and creative work. With over 40 majors| 56 minors| and over 100 clubs and student organizations| you will find your place on campus to make a difference at Eastern and beyond.
Fairfield University,1073 N Benson Rd,Fairfield,CT,40000,https://www.fairfield.edu/,,82,57,Fairfield University is a Jesuit| Catholic university in mission and spirit. Our objectives include promoting a sense of social responsibility| and making sure all students embrace and develop their full creative| intellectual potential. We provide a liberal arts education that is both broad and deep| believing that in order to better the world| you first have to understand it from a staggering number of viewpoints. We believe that each and every student is a capable individual with infinite potential| and we embrace the opportunity to turn strengths into careers.
Quinnipiac University,275 Mt Carmel Ave,Hamden,CT,39000,https://www.qu.edu/,,78,70,Quinnipiac is a private| coeducational university enrolling approximately 7000 undergraduate and 2900 graduate students in business| communications| engineering| liberal arts| health sciences| nursing| education| law and medicine. Through high-quality academics| top-notch internships| research opportunities| service learning| study abroad and state-of-the-art facilities| students are well prepared for the evolving careers of the 21st century. Quinnipiac is consistently ranked among the best universities by U.S. News and World Report and others. Recently elevated to the doctoral/professional category by Carnegie Classifications for Institutions of Higher Learning| Quinnipiac advances from the master's category to join some of the leading universities in the United States.
Sacred Heart University,5151 Park Ave,Fairfield,CT,41000,http://www.sacredheart.edu/,,60,64,Sacred Heart University is a Catholic university offering innovative academic programs in the School of Computer Science and Engineering| Welch College of Business| College of Health Professions| College of Nursing| Farrington College of Education| School of Communication| Media & the Arts| and the College of Arts & Sciences. SHU’s campus includes new academic| residential and recreational facilities where a community of students pursues academic and career success along with passions such as the performing arts| D-I and club athletics| community service and leadership.
Southern Connecticut State University,501 Crescent St,New Haven,CT,19000,http://www.southernct.edu/,,51,69,Welcome to this vibrant community of more than 11|000 students located less than three miles from downtown New Haven. Founded as a teachers college in 1893| Southern has evolved over the past century into a comprehensive university offering 114 graduate and undergraduate programs. More than 700 faculty members lead students through a wide range of studies and research specialties.
Delaware Valley Universit,700 E Butler Ave,Doylestown,PA,28000,http://www.delval.edu/,,57,93,Delaware Valley University is an independent| comprehensive university. Located in Doylestown| Pennsylvania| DelVal combines the comfort of small-town living with the excitement of big-city access. We emphasize experiential and interdisciplinary learning and provide small class sizes where students learn on a first-name basis. DelVal is a comprehensive university that engages students on a first-name basis. Using real-world experience from day one| students| faculty and staff inspire one another to tackle the issues most important to them. We are changing the world one student at a time.
University of Delaware,University of Delaware,Newark,DE,16000,http://www.udel.edu/,,81,71,At the University of Delaware| we believe that inside each of our students| inside you| is a great idea| a revolutionary invention| a visionary work of art. We believe that with hard work| creativity and guidance you can break barriers. We believe this because our students| faculty and alumni have done it. Their ideas have redefined the world we know today. With deep historical roots going back to 1743| UD has a long tradition of innovation| creativity and scholarly inquiry. UD offers more than 150 majors and over 100 minors| allowing you to customize your education according to your passions.
Delaware State University,1200 N Dupont Hwy,Dover,DE,14000,http://www.desu.edu/,,42,53,Delaware State University is a public historically black land-grant research university in Dover| Delaware. DSU also has two satellite campuses| one in Wilmington and one in Georgetown. The university encompasses four colleges and a diverse population of undergraduate and advanced-degree students
Strayer University,800 N King St Suite 101,Wilmington,DE,15000,https://www.strayer.edu/campus-locations/district-columbia/washington?y_source=1_MTI3MjYyMjMtNzE1LWxvY2F0aW9uLndlYnNpdGU%3D,,19,100,At Strayer| you can discover degrees designed for your life today – and for your career tomorrow. Our flagship campus is located in the heart of D.C.| steps away from the White House. With a student lounge and Wilkes Library onsite| you’ll find places to gather| study and build friendships. But don’t forget to take a break—great shopping| world-class museums and exceptional eateries are right in your backyard. You’ll also be a few blocks away from parking garages| public transportation and two metro stations. Schedule your visit today.
Ave Maria University,5050 Ave Maria Blvd,Ave Maria,FL,18000,https://www.avemaria.edu/,,64,85,Acceptance Criteria To be eligible for regular undergraduate admission to the University| students are expected to meet the following standards: High school unweighted grade point average (GPA) equal to or above 2.8 or college GPA equal to or above 2.6 on a 4.0 scale. An SAT score of 1060 (two part) or above| or an ACT score of 21 or above.
Barry University,11300 NE 2nd Ave,Miami Shores,FL,18000,http://www.barry.edu/?source=GooglePlaces&ad=MainCampus,,62,51,Barry University in Miami| Florida| inspires students to foster positive change in the local and global community. No matter what undergraduate or graduate degree program you choose| you gain hands-on experience and apply what you learn in the classroom to a rapidly changing world. You work with professors who mentor| encourage| and challenge you. You choose from a full array of campus activities that allow you to have fun| make friends| and develop your talents. At Barry| you prepare to join the next generation of change agents and leaders.
Florida Atlantic University,777 Glades Rd,Boca Raton,FL,10000,http://www.fau.edu/,,54,63,Florida Atlantic University calls to the innovative and ambitious. FAU leads the state in research| diversity| and opportunity| thereby setting the pace for student success. With six strategic sites stretching along the southeast Florida coast| each one offers distinct programs and services to students and local communities. The largest FAU campus is located in Boca Raton| featuring modern academic and recreational facilities| a lush sub-tropical environment| and a vibrant community that breathes life into the surrounding areas. FAU graduates earn the second-highest starting salaries in Florida| with a 68% job placement rate within one year from graduation.
Florida Gulf Coast University,10501 FGCU Blvd S,Fort Myers,FL,14000,http://www.fgcu.edu/,,51,67,Florida Gulf Coast University| located in SW Florida| is a public university offering undergraduate and graduate programs to approximately 15|000 students. Founded in 1997| FGCU has grown exponentially in academic programs| research| campus life| donor support| and student outcomes. Students discover their passions with 59 undergraduate and 30+ graduate majors and have access to countless academic and support services to keep them on track to graduate on time. FGCU has a thriving campus with on-campus housing| 16 places to eat| over 250 clubs and organizations| 29 fraternities and sororities| and 15 Division I athletic teams.
Florida Polytechnic University,4700 Research Way,Lakeland,FL,15000,https://floridapoly.edu/,,43,50,Florida Polytechnic University is the nation's leading institution of change| engineered from the ground up to push the boundaries of education in science| technology| engineering| and math (STEM). Located in Lakeland| the heart of Florida’s High-Tech Corridor| Florida Poly provides cutting-edge degree programs that prepare graduates to take on today’s fastest-growing fields.
Florida State University,600 W College Ave,Tallahassee,FL,11000,http://www.fsu.edu/,,80,36,Florida State University| designated a preeminent university in the state of Florida| offers a student-centered education that inspires the academically motivated| intellectually curious| and socially conscious student.
Jacksonville University,2800 University Blvd N,Jacksonville,FL,22000,https://www.ju.edu/,,41,92,At Jacksonville| you’ll find a university that offers more than 100 majors| minors| and pre-professional programs in our four colleges of Arts & Sciences| Business| Fine Arts| and Health Sciences. With a rigorous Honors Program| study abroad opportunities| 18 NCAA Division I athletics| intramural teams and hands-on learning| JU will provide experiences inside and outside of the classroom.
Lynn University,3601 N Military Trl,Boca Raton,FL,37000,http://www.lynn.edu/,,45,74,Lynn University is an independent college based in Boca Raton| Florida| with approximately 3|000 students from nearly all 50 states and over 100 countries. U.S. News & World Report ranks Lynn as the most international university in the region. Lynn's NCAA Division II Fighting Knights have won 25 national titles| its Conservatory of Music features a world-renowned faculty of performers| and its nationally recognized Institute for Achievement and Learning empowers students with learning differences. The school's Dialogues curriculum and award-winning iPad program help Lynn graduates gain the intellectual flexibility and global experience to fulfill their potential in an ever-changing world.
Nova Southeastern University,3301 College Ave,Fort Lauderdale,FL,26000,http://www.nova.edu/,,62,80,Located in beautiful Fort Lauderdale| Florida| Nova Southeastern University is a dynamic research institution dedicated to providing high-quality educational programs at the undergraduate| graduate| and first-professional degree levels. NSU has earned an exemplary reputation for its innovative academic and interdisciplinary research offerings| making discoveries and producing new knowledge in health care| biotechnology| life sciences| environment and social sciences.
Palm Beach Atlantic University,901 S Flagler Dr,West Palm Beach,FL,24000,http://www.pba.edu/,,50,95,At Palm Beach Atlantic University we care about your whole journey–the spiritual| the academic| the personal. You’ll discover the joy of pursuing your purpose–not alone| but alongside a community of peers and professors that are as passionate as you. Here| steadfast belief anchors our steps| inspires our action & connects us to a story far bigger than ourselves. We strive tirelessly to give you the opportunities to unlock your potential & make an impact on the world. Plus| there is no better place than beautiful West Palm Beach to pursue academic excellence| transformative experiences & long-term success.
Saint Leo University,33701 State Rd 52,St Leo,FL,20000,https://www.saintleo.edu/,,54,72,Founded in 1889| Saint Leo University is a private| Catholic| liberal-arts university with a rich tradition of welcoming students of all faiths and those with no religious affiliation. Located in Central Florida just 30 miles north of Tampa| our beautiful University Campus serves nearly 2|300 students pursuing undergraduate degrees in over 45 academic majors as well as 47 minor areas of study. As one of the top-ranked universities in Florida| we pride ourselves on delivering a high quality education at an affordable cost. With an average class size of just 19 students| our outstanding faculty get to know you on a personal level and are committed to your success.
St.Thomas University Florida,16401 NW 37th Ave,Miami Gardens,FL,17000,http://www.stu.edu/,,42,55,Founded in 1910| St. Thomas is a small| primarily undergraduate university dedicated to excellence in liberal arts. With 100% of our professors holding the highest degrees in their fields| capped classes of no more than 60 students| a generous scholarship program| and incredible experiential learning opportunities| it's no wonder we are called the small university of big opportunities. Our community| which includes students from all over the world| has long been bonded by a commitment to social justice| and our alumni work in every field imaginable.
Stetson University,421 N Woodland Blvd,DeLand,FL,26000,https://www.stetson.edu/,,64,72,"Stetson University consistently ranks in the ""Top 5 Best Colleges in the South"" and ranked 3rd in ""Best Colleges for Veterans"" by U.S. News & World Report. Recently| Stetson has been named in the top 384 universities by Princeton Review| and our location of DeLand| FL has been chosen as the Best Main Street in America! Stetson University is home to over 60 academic programs in four divisional areas and with undergraduate and graduate studies offered in many areas."
The University of West Florida,11000 University Pkwy,Pensacola,FL,8000,https://uwf.edu/,,65,31,Based in Pensacola| UWF is home to five academic colleges| offering a variety of bachelor's and master's degree programs| as well as specialist degrees and a doctorate in education. With a student population of nearly 13|000 and an average class size of less than 40| UWF is committed to providing a close-knit academic experience. In addition to fostering success in the classroom| UWF Athletics (Division II) leads the Gulf South Conference in all-time championships and all-sports trophies. UWF is more than a University. It's a symbol of success| commitment of lifelong learning| and change.
University of Central Florida,4000 Central Florida Blvd,Orlando,FL,13000,https://www.ucf.edu/,,75,44,"The University of Central Florida is an emerging preeminent research institution and America's Partnership University. Our 13 colleges provide education and opportunities to more than 64|000 students from 50 states and more than 150 countries. Located in Orlando| Florida| UCF is one of the nation's largest universities with 212 degree programs offered. UCF is ranked as a ""Top Tier"" university by U.S. News & World Report| a best-value university by The Princeton Review and Kiplinger's| and one of the nation's most affordable colleges by Forbes."
University of Florida,University of Florida,Gainesville,FL,8000,https://www.ufl.edu/,,87,37,As a preeminent top-10 research university| UF is committed to pushing the world forward by challenging convention and ourselves. We measure our success in people helped and lives improved. Our 11 colleges offer more than 120 undergraduate and 200 graduate degrees. We also offer five professional schools: dentistry| law| medicine| pharmacy and veterinary medicine. With world-class faculty| undergraduate research opportunities| 1|000+ student organizations| residential living and learning communities| and an inclusive environment| students can create a signature experience.
University of Miami,1320 S Dixie Hwy,Coral Gables,FL,31000,http://www.miami.edu/,,81,27,The University of Miami educates leaders| problem-solvers| and agents of change in 180+ majors and programs. Benefit from the flexibility to cross disciplines to pursue an education that is distinctly you. Venture beyond the classroom walls to labs| studios| concert halls| student organizations| and internships. With a 12:1 student-faculty ratio| put knowledge into practice alongside faculty experts to research topics as diverse as genomics| the humanities| climate change| and cancer as early as your first year. Study in a vibrant| international city that affords endless experiential learning opportunities to prepare you for tomorrow's global community.
University of North Florida,1 UNF Dr,Jacksonville,FL,11000,http://www.unf.edu/,,61,72,At the University of North Florida| we focus on our students' educational experience above all. Here| you will get a personalized education with small class sizes| professors who know you and care about your progress and many opportunities for hands-on| transformational learning experiences. Our stunning campus is located on a nature preserve that is only minutes from the beach and Downtown Jacksonville. Plan a visit and see for yourself!
University of South Florida,4202 E Fowler Ave,Tampa,FL,10000,https://www.usf.edu/,,69,48,It’s time for your next big chapter. Where will it begin? Take charge of your success story at the University of South Florida. We’re a dynamic university re-writing the rules of what’s possible every single day – and you can| too. Whether you’re drawn by our exceptional academics| diverse learning environment| affordable costs or unparalleled location on the Gulf Coast of Florida| USF is an ideal launching pad for what comes next.  
University of Tampa,401 W Kennedy Blvd,Tampa,FL,31000,http://www.ut.edu/,,58,45,Known for academic excellence| personal attention and real-world experience in its undergraduate and graduate programs| University of Tampa students come from 50 states and 137 countries. There are 200 areas of study| including 11 master's degree programs and numerous study abroad opportunities. From its humble beginnings in Plant Hall| UT boasts a $220 million annual budget and a $750 million estimated annual economic impact.
Webber International University,1201 N Scenic Hwy,Babson Park,FL,24000,https://www.webber.edu/,,31,42,WIU was founded as Webber College by Roger Babson| an entrepreneur and business theorist in the first half of the 20th century.Established in 1927 as the first private college chartered under Florida's then new charitable and educational laws and one of the nation's first business schools for women| Webber International University now hosts men and women from some 48 different nations.Webber is recognized as one of only eleven Schools With a Specialty - Business| by the U.S. News & World Report America's Best Colleges| a Best Southeastern College by The Princeton Review| and an America's Most Military Friendly College by GI Jobs.
Augusta University,1120 15th St,Augusta,GA,13000,http://www.augusta.edu/,,25,76,Augusta University is the state of Georgia’s designated center of health sciences excellence and a thriving comprehensive research university with 9|500 students. We offer more than 150 areas of study across ten colleges| for undergraduates| graduates| and professional students.
Brenau University,500 Washington St SE,Gainesville,GA,22000,http://www.brenau.edu/,,35,58,Since 1878| Brenau University has called Gainesville| Georgia| home. On Brenau’s historic Gainesville campus| The Women’s College of Brenau University offers women the opportunity to develop leadership skills through programs designed especially for them| eight national sororities and 14 NAIA sports teams. In the co-educational Undergraduate School| also located on the Gainesville campus| students study literature| history| and science| but also focus on values| leadership and service.  Additionally| the university maintains three campuses outside of Gainesville – North Atlanta| South Atlanta| and Jacksonville| FL.
Clark Atlanta University,223 James P Brawley Dr SW,Atlanta,GA,33000,http://www.cau.edu/,,37,55,Clark Atlanta University (CAU) is a comprehensive| private| urban| coeducational institution of higher education with a predominantly African-American heritage. It offers undergraduate| graduate| and professional degrees as well as certificate programs to students of diverse racial| ethnic| and socioeconomic backgrounds. Clark Atlanta is one of the nation's foremost research institutions| offering students from around the United States and several foreign countries the opportunity to engage in 38 exciting areas of study at the bachelor's| master's and doctoral levels.
Emory University,201 Dowman Dr,Atlanta,GA,25000,http://www.emory.edu/,,90,16,Emory University is recognized internationally for its outstanding liberal arts colleges| graduate and professional schools| and one of the Southeast's leading health care systems. Emory maintains an uncommon balance for an institution of its standing: our scholars and experts generate more than $700 million in research funding annually| while also maintaining a traditional emphasis on teaching. The university is enriched by the legacy and energy of Atlanta| and by collaboration among its schools| centers and partners.
Georgia State University,Georgia State University,Atlanta,GA,15000,https://www.gsu.edu/,,52,76,Ranked the No. 2 most innovative university in the U.S.| Georgia State University is an enterprising urban public research institution in Atlanta| the leading cultural and economic center of the Southeast. With seven campuses throughout metro Atlanta| the university's 10 colleges and schools provide more than 51|000 students with unsurpassed access to opportunities in one of the nation's great global cities.
Mercer University Atlanta Campus,3001 Mercer University Dr,Atlanta,GA,35000,https://www.mercer.edu/,,66,74,Mercer University is one of America's oldest and most distinctive institutions of higher learning| offering rigorous programs that span the undergraduate liberal arts to doctoral level degrees. While offering a breadth of programs found at much larger universities| Mercer maintains an intimate| student-focused culture more characteristic of smaller liberal arts colleges.
Oglethorpe University,4484 Peachtree Rd NE,Brookhaven,GA,22000,https://oglethorpe.edu/,,46,68,Founded in 1835| Oglethorpe University unites a close-knit campus community with big city culture and opportunities. Today| Oglethorpe enrolls 1|385 students| representing 37 states and 30 countries. We are a member of the Annapolis Group| an organization of America's most selective liberal arts institutions. OU is listed among the best colleges in Princeton Review and Forbes and has been named to the President's Higher Education Community Service Honor Roll since 2006.
University of Georgia,University of Georgia,Athens,GA,14000,https://www.uga.edu/,,84,45,Chartered by the state of Georgia in 1785| the University of Georgia is the birthplace of public higher education in America launching our nation’s great tradition of world-class public education. What began as a commitment to inspire the next generation grows stronger today through global research| hands-on learning and extensive outreach. A top value in public higher education and research| the University of Georgia tackles some of the world’s grand challenges. Located in the Classic City of Athens| approximately 90 minutes northeast of Atlanta| the university thrives in a community that combines a culture-rich college town with a strong economic center.
Chaminade University of Honolulu,3140 Waialae Ave,Honolulu,HI,23000,https://www.chaminade.edu/,,59,95,At Chaminade University of Honolulu| you will find a world of possibilities just a few miles from the beaches of Waikiki. Learn about coral reefs by taking a field trip to a nearby beach and seeing one for yourself. Become an entrepreneur and create your own business plan by learning from business leaders from across the Pacific. Major in forensic sciences and collect evidence in our crime scene house| and then analyze it with our state-of-the-art lab equipment. We offer 23 majors and 28 minors| from biochemistry to interior design| all developed to provide you with the technical and experiential expertise to succeed. Our small class sizes and 11:1 student to faculty ratio mean you will get the one-on-one attention you need to thrive. 
Hawaii Pacific University,1 Aloha Tower Dr,Honolulu,HI,27000,https://www.hpu.edu/,,24,75,Knowledge is more easily grasped when you receive a hands-on education. At Hawai‘i Pacific University| a deliberately intimate learning environment empowers you to get up-close and personal with the subjects you’re passionate about. Along with the sort of unmatched diversity that only exists at the intersection of East and West| of urban campus and island paradise| you’ll graduate both market- and world-ready. HPU is different| and inclusive. You will experience things here that you won’t experience anywhere else in the world. Get ready to make friends who are also excited about new experiences| people| and perspectives.
University of Hawaii at Manoa,2500 Campus Rd,Honolulu,HI,15000,https://manoa.hawaii.edu/,,58,95,The University of Hawaii at Manoa is a public land-grant research university in Manoa| a neighborhood in Honolulu| Hawaii| United States. It is the flagship campus of the University of Hawai'i system and houses the main offices of the system
Boise State University,1910 W University Dr,Boise,ID,15000,https://www.boisestate.edu/,,39,77,Boise State University is a public research university in Boise| Idaho. Founded in 1932 by the Episcopal Church| it became an independent junior college in 1934 and has been awarding baccalaureate and master's degrees since 1965.
University of Idaho,875 Perimeter Dr,Moscow,ID,15000,http://www.uidaho.edu/,,56,78,he University of Idaho is a public land-grant research university in Moscow| Idaho. It is the state's land-grant and primary research university| and the lead university in the Idaho Space Grant Consortium.
Idaho State University,921 S 8th Ave,Pocatello,ID,17000,http://www.isu.edu/,,56,100,Idaho State University is a public research university in Pocatello| Idaho. Founded in 1901 as the Academy of Idaho| ISU offers more than 280 programs at its main campus and at locations in Meridian| Idaho Falls| and Twin Falls. It is the state's designated lead institution in health professions and medical education.
Chicago State University,Chicago State University,Chicago,IL,11000,http://www.csu.edu/,,17,63,Chicago State University is a public university in Chicago| Illinois. Founded in 1867 as the Cook County Normal School| it was an innovative teachers college. Eventually the Chicago Public Schools assumed control of the school and it became Chicago Teachers College
Eastern Illinois University,600 Lincoln Ave,Charleston,IL,14000,https://www.eiu.edu/,,57,53,Eastern Illinois University is a public university in Charleston| Illinois. Established in 1895 as the Eastern Illinois State Normal School| a teacher's college offering a two-year degree| Eastern Illinois University gradually expanded into a comprehensive university with a broad curriculum| including bachelor's and master's degrees in education| business| arts| sciences| and humanities.
Governors State University,1 University Pkwy,University Park,IL,17000,https://www.govst.edu/,,47,46,Governors State University is a public university in University Park| Illinois. The 750 acres (3.0 km2) campus is located 30 miles (48 km) south of Chicago| Illinois. GSU was founded in 1969. It is a public university offering degree programs at the undergraduate| master's| and doctoral levels. GSU has four colleges: the College of Arts and Sciences| the College of Business| the College of Education| and the College of Health and Human Services.
Illinois State University,100 N University St,Normal,IL,21000,http://illinoisstate.edu/,,72,82,Illinois State University (ISU) is a public research university in Normal| Illinois. Founded in 1857 as Illinois State Normal University| it is the oldest public university in Illinois. The university emphasizes teaching and is recognized as one of the top ten largest producers of teachers in the US according to the American Association of Colleges of Teacher Education
University of Illinois at Urbana-Champaign,University of Illinois at Urbana-Champaign,Champaign,IL,17000,http://illinois.edu/,,85,59,The University of Illinois at Urbana–Champaign is a public land-grant research university in Illinois in the twin cities of Champaign and Urbana. It is the flagship institution of the University of Illinois system and was founded in 1867
University of Illinois at Chicago,1200 W Harrison St,Chicago,IL,13000,http://www.uic.edu/,,58,73,The University of Illinois at Chicago (UIC) is a public research university in Chicago| Illinois. Its campus is in the Near West Side community area| adjacent to the Chicago Loop. The second campus established under the University of Illinois system| UIC is also the largest university in the Chicago area| having more than 33|000 students enrolled in 16 colleges
University of Illinois at Springfield,One University Plaza,Springfield,IL,11000,http://www.uis.edu/,,66,77,The University of Illinois Springfield (UIS) is a public university in Springfield| Illinois. The university was established in 1969 as Sangamon State University by the Illinois General Assembly and became a part of the University of Illinois system on July 1| 1995. As a public liberal arts college| and the newest campus in the University of Illinois system| UIS is a member of the Council of Public Liberal Arts Colleges.
Northeastern Illinois University,5500 N St Louis Ave,Chicago,IL,19000,https://www.neiu.edu/,,62,58,Northeastern Illinois University (NEIU) is a public university in Chicago| Illinois. NEIU serves approximately 9|000 students in the region and is a Hispanic Serving Institution. The main campus is located in the community area of North Park with three additional campuses in the metropolitan area.
Northern Illinois University,1425 W Lincoln Hwy,DeKalb,IL,23000,https://www.niu.edu/,,46,48,Northern Illinois University is a public research university in DeKalb| Illinois. It was founded as Northern Illinois State Normal School on May 22| 1895| by Illinois Governor John P. Altgeld as part of an expansion of the state's system for producing college-educated teachers.
Southern Illinois University,1263 Lincoln Dr,Carbondale,IL,17000,http://www.siu.edu/,,63,66,"Southern Illinois University (SIU or SIUC) is a public research university in Carbondale| Illinois. Founded in 1869| SIU is the oldest campus of the Southern Illinois University system.It is classified among ""R2: Doctoral Universities – High research activity"".The university enrolls students from all 50 states as well as more than 100 countries"
Western Illinois University,1 University Cir,Macomb,IL,16000,http://www.wiu.edu/,,53,57,Western Illinois University (WIU) is a public university in Macomb| Illinois. It was founded in 1899 as Western Illinois State Normal School. As the normal school grew| it became Western Illinois State Teachers College.
Ball State University,2000 W University Ave,Muncie,IN ,15000,http://www.bsu.edu/,,57,77,Ball State University (Ball State or BSU) is a public research university in Muncie| Indiana. It has two satellite facilities in Fishers and Indianapolis. On July 25| 1917| the Ball brothers| industrialists and founders of the Ball Corporation| acquired the foreclosed Indiana Normal Institute for $35|100 and gave the school and surrounding land to the State of Indiana.
Indiana University Bloomington,107 S Indiana Ave,Bloomington,IN ,13000,https://www.indiana.edu/,,76,78,Indiana University Bloomington (IU Bloomington| IU| or simply Indiana) is a public research university in Bloomington| Indiana. It is the flagship institution of the Indiana University system and| with over 40|000 students| its largest university.
Indiana University East,2325 Chester Blvd,Richmond,IN ,9000,http://www.iue.edu/,,31,63,Indiana University East is a public university in Richmond| Indiana. It is a regional campus of Indiana University. Located in the eastern Indiana and western Ohio region| IU East enrolls over 4|000 students across its 60 academic degree programs.
Indiana University Fort Wayne,2101 E Coliseum Blvd E,Fort Wayne,IN,32000,https://www.iufw.edu/,,27,82,Indiana University – Purdue University Fort Wayne was a public university in Fort Wayne| Indiana. Founded in 1964| IPFW was a cooperatively-managed regional campus of two state university systems: Indiana University and Purdue University.
Indiana University Kokomo,2300 S Washington St,Kokomo,IN ,9000,https://www.iuk.edu/,,39,74,Indiana University Kokomo is a public university in Kokomo| Indiana. It is a regional campus of Indiana University. IUK serves north central Indiana and its athletics teams are known as the Cougars.
Indiana University Northwest,3400 Broadway,Gary,IN ,8000,http://www.iun.edu/,,22,75,Indiana University Northwest is a public university in Gary| Indiana. It is a regional campus of Indiana University and was established in 1963.
Indiana University South Bend,1700 E Mishawaka Ave,South Bend,IN ,9000,http://www.iusb.edu/,,27,78,Indiana University South Bend is a public university in South Bend| Indiana. It is the third largest and northernmost campus of Indiana University.
Indiana University Southeast,4201 Grant Line Rd,New Albany,IN ,10000,https://www.ius.edu/,,31,82,Indiana University Southeast is a public university in New Albany| Indiana. It is a regional campus of Indiana University.
Indiana University–Purdue University Indianapolis,420 University Blvd,Indianapolis,IN,11000,https://www.iupui.edu/,,46,81,Indiana University–Purdue University Indianapolis is a public research university in Indianapolis| Indiana. A core campus of Indiana University that also offers Purdue University degrees| it is the result of a merger in 1969 of the Purdue Indianapolis Extension Center and Indiana University Indianapolis
Indiana State University,200 N 7th St,Terre Haute,IN ,13000,http://www.indstate.edu/,,36,90,"Indiana State University is a public university in Terre Haute| Indiana. It was founded in 1865 and offers over 100 undergraduate majors and more than 75 graduate and professional programs. Indiana State is classified among ""D/PU: Doctoral/Professional Universities"""
Purdue University,610 Purdue Mall,West Lafayette,IN ,13000,https://www.purdue.edu/,,76,60,Purdue University is a public land-grant research university in West Lafayette| Indiana| and the flagship campus of the Purdue University system. The university was founded in 1869 after Lafayette businessman John Purdue donated land and money to establish a college of science| technology| and agriculture in his name.
University of Southern Indiana,8600 University Blvd,Evansville,IN ,13000,http://www.usi.edu/,,38,93,The University of Southern Indiana is a public university just outside of Evansville| Indiana. Founded in 1965| USI enrolls 10|929 dual credit| undergraduate| graduate and doctoral students in more than 80 majors.
Vincennes University,1000 N 4th St,Vincennes,IN ,14000,http://vinu.edu/,,20,77,Vincennes University (VU) is a public university with its main campus in Vincennes| Indiana. Founded in 1801 as Jefferson Academy| VU is the oldest public institution of higher learning in Indiana. VU was chartered in 1806 as the Indiana Territory's four-year university and remained the state of Indiana's sole publicly funded four-year university until the establishment of Indiana University in 1820.
University of Iowa,University of Iowa,Iowa City,IA,16000,https://uiowa.edu/,,72,83,The University of Iowa is a public research university in Iowa City| Iowa. Founded in 1847| it is the oldest and the second-largest university in the state. The University of Iowa is organized into 12 colleges offering more than 200 areas of study and seven professional degrees.
Iowa State University,Iowa State University,Ames,IA ,15000,https://www.iastate.edu/,,75,92,Iowa State University of Science and Technology is a public land-grant research university in Ames| Iowa. It is the largest university in the state of Iowa and the third largest university in the Big 12 athletic conference.
University of Northern Iowa,1227 W 27th St,Cedar Falls,IA ,16000,http://www.uni.edu/,,65,79,The University of Northern Iowa is a public university in Cedar Falls| Iowa. UNI offers more than 90 majors across the colleges of Business Administration| Education| Humanities| Arts| and Sciences| Social and Behavioral Sciences and graduate college. The fall 2019 enrollment was 10|497
Emporia State University,1 Kellogg Cir,Emporia,KS ,14000,https://www.emporia.edu/,,43,85,Emporia State University is a public university in Emporia| Kansas. Established in March 1863 as the Kansas State Normal School| Emporia State is the third-oldest public university in the state of Kansas. Emporia State is one of six public universities governed by the Kansas Board of Regents.
Fort Hays State University,600 Park St,Hays,KS ,12000,http://www.fhsu.edu/,,71,91,Fort Hays State University is a public university in Hays| Kansas. It is the fourth-largest of the six state universities governed by the Kansas Board of Regents| with a total enrollment of approximately 15|100 students.
University of Kansas,1450 Jayhawk Blvd,Lawrence,KS ,19000,https://www.ku.edu/,,63,93,The University of Kansas is a public research university with its main campus in Lawrence| Kansas| and several satellite campuses| research and educational centers| medical centers| and classes across the state of Kansas.
Kansas State University,Kansas State University,Manhattan,KS,18000,http://www.k-state.edu/,,63,95,Kansas State University is a public land-grant research university with its main campus in Manhattan| Kansas. It was opened as the state's land-grant college in 1863 and was the first public institution of higher learning in the state of Kansas.
Pittsburg State University,1701 S Broadway St,Pittsburg,KS ,14000,http://www.pittstate.edu/,,49,96,Pittsburg State University is a public university in Pittsburg| Kansas. It enrolls approximately 7|400 students and is a member of the Kansas Board of Regents.
Wichita State University,1845 Fairmount St,Wichita,KS ,15000,http://www.wichita.edu/,,55,92,Wichita State University is a public research university in Wichita| Kansas. It is governed by the Kansas Board of Regents. The university offers more than 60 undergraduate degree programs in more than 200 areas of study in six colleges.
Eastern Kentucky University,521 Lancaster Ave,Richmond,KY ,14000,http://www.eku.edu/,,40,94,Eastern Kentucky University is a public university in Richmond| Kentucky. It is accredited by the Southern Association of Colleges and Schools. It maintains branch campuses in Corbin| Hazard| Lancaster| and Manchester and offers more than 40 online undergraduate and graduate options. 
University of Kentucky,University of Kentucky,Lexington,KY ,19000,http://www.uky.edu/,,63,96,The University of Kentucky (UK or UKY) is a public land-grant research university in Lexington| Kentucky. Founded in 1865 by John Bryan Bowman as the Agricultural and Mechanical College of Kentucky| the university is one of the state's two land-grant universities (the other being Kentucky State University) and the institution with the highest enrollment in the state| with 30|545 students as of fall 2019
Kentucky State University,400 E Main St,Frankfort,KY ,10000,http://www.kysu.edu/,,19,81,Kentucky State University is a public historically black land-grant university in Frankfort| Kentucky. Founded in 1886 as the State Normal School for Colored Persons| and becoming a land-grant college in 1890| KSU was the second state-supported institution of higher learning in Kentucky
University of Louisville, 2301 S 3rd St,Louisville,KY ,17000,http://louisville.edu/,,52,69,The University of Louisville is a public research university in Louisville| Kentucky. It is part of the Kentucky state university system. When founded in 1798| it was the first city-owned public university in the United States and one of the first universities chartered west of the Allegheny Mountains
Morehead State University,150 University Blvd,Morehead,KY ,13000,http://www.moreheadstate.edu/,,46,78,Morehead State University (MSU) is a public university in Morehead| Kentucky.The university began as Morehead Normal School| which opened its doors in 1887. One student appeared on the first day of class in October 1887| in a little| rented cottage where the Adron Doran University Center now stands.
Murray State University,102 Curris Center,Murray,KY ,12000,https://www.murraystate.edu/,,48,82,Murray State University is a public university in Murray| Kentucky. In addition to the main campus in Calloway County in southwestern Kentucky| Murray State operates extended campuses offering upper level and graduate courses in Paducah| Hopkinsville| Madisonville| and Henderson.
Northern Kentucky University,Louie B Nunn Dr,Highland Heights,KY ,10000,http://www.nku.edu/,,37,90,Northern Kentucky University is a public university in Highland Heights| Kentucky. It is primarily an undergraduate institution with over 14|000 students; over 12|000 are undergraduate students and nearly 2|000 are graduate students.
Western Kentucky University,1906 College Heights Blvd,Bowling Green,KY ,13000,http://www.wku.edu/,,44,97,Western Kentucky University is a public university in Bowling Green| Kentucky. It was founded by the Commonwealth of Kentucky in 1906| though its roots reach back a quarter-century earlier. It operates regional campuses in Glasgow| Elizabethtown-Fort Knox| and Owensboro.
Louisiana State University,Louisiana State University,Baton Rouge,LA ,15000,http://www.lsu.edu/,,68,75,Louisiana State University is a public land-grant research university in Baton Rouge| Louisiana. The university was founded in 1853 in what is now known as Pineville| Louisiana| under the name Louisiana State Seminary of Learning & Military Academy. 
Louisiana State University at Eunice,2048 Johnson Hwy,Eunice,LA ,8000,http://www.lsue.edu/,,17,100,Louisiana State University Eunice is a public junior college in Eunice| Louisiana. It is the only junior college associated with the Louisiana State University System. It enrolls over 3|000 full and part-time students and has the highest transfer rates among all two-year institutions in Louisiana.
Louisiana State University of Alexandria, 8100 US-71,Alexandria,LA ,7500,http://www.lsua.edu/,,23,56,Louisiana State University of Alexandria is a public university in Alexandria| Louisiana. It offers undergraduate degrees in numerous disciplines. The university is a unit of the LSU System and operates under the auspices of the Louisiana Board of Regents.
Louisiana State University Shreveport,One University Pl,Shreveport,LA ,9200,http://www.lsus.edu/,,42,84,Louisiana State University Shreveport (LSU Shreveport or LSUS) is a public university in Shreveport| Louisiana. It is part of the Louisiana State University System. Initially| a two-year college| LSUS has expanded into a university with 21 undergraduate degree programs| a dozen master's degree programs| and more recently a Doctorate of Education (Ed.D.) in Leadership Studies.
Grambling State University,403 Main St,Grambling,LA ,19000,http://www.gram.edu/,,41,97,Grambling State University is a public historically black university in Grambling| Louisiana. The university is home of the Eddie G. Robinson Museum and is listed on the Louisiana African American Heritage Trail.
Louisiana Tech University, 201 Mayfield Ave,Ruston,LA ,9800,http://www.latech.edu/,,52,64,"Louisiana Tech University is a public research university in Ruston| Louisiana. It is part of the University of Louisiana System and classified among ""R2: Doctoral Universities – High research activity"""
McNeese State University,4205 Ryan St,Lake Charles,LA ,11000,http://www.mcneese.edu/,,41,81,McNeese State University is a public university in Lake Charles| Louisiana. Founded in 1939 as Lake Charles Junior College| it was renamed McNeese Junior College after John McNeese| an early local educator. The present name was adopted in 1970
Nicholls State University,906 E 1st St,Thibodaux,LA ,11000,https://www.nicholls.edu/,,47,88,Nicholls State University is a public university in Thibodaux| Louisiana. Founded in 1948| Nicholls is part of the University of Louisiana System. Originally named Francis T. Nicholls Junior College| the university is named for Francis T. Nicholls| a former governor of Louisiana and member of the Louisiana Supreme Court.
Northwestern State University,175 Sam Sibley Dr,Natchitoches,LA ,11000,http://www.nsula.edu/,,40,82,Northwestern State University of Louisiana is a public university primarily situated in Natchitoches| Louisiana| with a nursing campus in Shreveport and general campuses in Leesville/Fort Polk and Alexandria. It is a part of the University of Louisiana System.
Southeastern Louisiana University,500 W University Ave,Hammond,LA ,12000,http://southeastern.edu/,,38,90,Southeastern Louisiana University is a public university in Hammond| Louisiana. It was founded in 1925 by Linus A. Sims as Hammond Junior College. Sims succeeded in getting the campus moved to north Hammond in 1928| when it became known as Southeastern Louisiana College. It achieved university status in 1970.
University of Louisiana at Lafayette,104 E University Ave,Lafayette,LA ,11000,http://louisiana.edu/,,44,68,"The University of Louisiana at Lafayette is a public research university in Lafayette| Louisiana. It has the largest enrollment within the nine-campus University of Louisiana System and the second largest enrollment in Louisiana. It is classified among ""R2: Doctoral Universities – High research activity"". "
University of Louisiana at Monroe,700 University Ave,Monroe,LA ,10000,http://www.ulm.edu/,,43,98,The University of Louisiana Monroe (ULM) is a public university in Monroe| Louisiana. It is part of the University of Louisiana System.ULM opened in 1931 as Ouachita Parish Junior College. Three years later it became the Northeast Center of Louisiana State University. In 1936 and 1937| its dean was Stephen A. Caldwell.
University of New Orleans,2000 Lakeshore Dr,New Orleans,LA ,11000,http://www.uno.edu/,,35,56,"The University of New Orleans is a public research university in New Orleans| Louisiana. It is a member of the University of Louisiana System and the Urban 13 association. It is classified among ""R2: Doctoral Universities – High research activity""."
Southern University,801 Harding Blvd,Baton Rouge,LA ,17000,http://www.subr.edu/,,29,35,Southern University  is a public historically black land-grant university in Baton Rouge| Louisiana. It is the largest historically black college or university in Louisiana| a member-school of the Thurgood Marshall College Fund| and the flagship institution of the Southern University System.
Southern University at New Orleans,6400 Press Dr,New Orleans,LA ,7000,http://www.suno.edu/,,15,60,Southern University at New Orleans is a public historically black university in New Orleans| Louisiana. It is a member of the Southern University System and the Thurgood Marshall College Fund.
Southern University at Shreveport,3050 Dr Martin Luther King Dr,Shreveport,LA ,11000,http://www.susla.edu/,,17,85,Southern University at Shreveport is a junior college in Shreveport| Louisiana. It is part of the historically black Southern University System. SUSLA| pushed to fruition by the administration of Governor John J. McKeithen| opened for instruction on September 19| 1967.
Maine Maritime Academy,1 Pleasant St,Castine,ME,23000,https://mainemaritime.edu/,,62,45,Maine Maritime Academy is a public college focused on maritime training and located in Castine| Maine. The academy was established by the 90th Maine Legislature on March 21| 1941. Unlike federal service academies| a congressional recommendation is not required to attend this state school.
University of Maine,168 College Ave,Orono,ME,16000,https://umaine.edu/,,58,90,The University of Maine is a public land-grant research university in Orono| Maine. It was established in 1865 as the land-grant college of Maine and is the flagship university of the University of Maine System. The University of Maine is one of only a few land| sea and space grant institutions in the nation.
University of Maine at Augusta,46 University Dr,Augusta,ME,11000,https://www.uma.edu/,,30,98,The University of Maine at Augusta is a public university in Augusta| Maine. It is part of the University of Maine System. UMA is a regional state university providing baccalaureate and select associate degrees for residents of Central Maine.
University of Maine at Farmington,224 Main St,Farmington,ME,14000,http://www.umf.maine.edu/,,56,91,The University of Maine at Farmington is a public liberal arts college in Farmington| Maine. It is part of the University of Maine System and a founding member of the Council of Public Liberal Arts Colleges.
University of Maine at Fort Kent,23 University Dr,Fort Kent,ME,12000,http://umfk.edu/,,38,99,The University of Maine at Fort Kent is a public university in Fort Kent| Maine. It is the northernmost campus of the University of Maine System. The university is an academic center for Acadian and French American culture and heritage| and French-speaking Mainers from throughout the state.
University of Maine at Machias,116 Obrien Ave,Machias,ME,8500,http://www.machias.edu/,,29,99,The University of Maine at Machias (UMM) is a public university in Machias| Maine. It is part of the University of Maine System. The university was founded in 1909 as a normal school for educating teachers| and offers studies in recreation| English| education| social sciences| and physical sciences| including a marine biology program. Enrollment is approximately 800 students.
University of Maine at Presque Isle,181 Main St,Presque Isle,ME,10000,http://www.umpi.edu/,,39,99,The University of Maine at Presque Isle (UMPI) is a public university in Presque Isle| Maine. It is part of the University of Maine System.It was founded in 1903 as Aroostook State Normal School| offering a two-year teacher preparation program.[1] It has undergone four name changes since then.
University of Southern Maine,96 Falmouth St,Portland,ME,12000,https://usm.maine.edu/,,54,81,The University of Southern Maine is a public university with campuses in Portland| Gorham and Lewiston in the U.S. state of Maine. It is the southernmost of the University of Maine System. It was founded as two separate state universities| Gorham Normal School and University of Maine at Portland.
Morgan State University,1700 E Cold Spring Ln,Baltimore,MD ,17000,http://www.morgan.edu/,,32,68,Morgan State University (MSU| Morgan State| or Morgan) is a public historically black research university in Baltimore| Maryland. It is the largest of Maryland's HBCUs. In 1867| the university| then known as the Centenary Biblical Institute| changed its name to Morgan College to honor Reverend Lyttleton Morgan| the first chairman of its board of trustees and a land donor to the college.
St. Mary's College of Maryland,47645 College Dr,St Marys City,MD ,21000,http://www.smcm.edu/,,73,84,"St. Mary's College of Maryland is a public liberal arts college in St. Mary's City| Maryland. Established in 1840| St. Mary's College of Maryland is an honors college that claims to ""offer an experience similar to that of an elite liberal arts college."""
University of Maryland,University of Maryland,College Park,MD ,18000,http://www.umd.edu/,,85,44,The University of Maryland| College Park is a public land-grant research university in College Park| Maryland. Founded in 1856| UMD is the flagship institution of the University System of Maryland.
Bowie State University,14000 Jericho Park Rd,Bowie,MD ,17000,https://www.bowiestate.edu/,,36,80,Bowie State University is a public historically black university in Prince George's County| Maryland| north of Bowie. It is part of the University System of Maryland. Founded in 1865| Bowie State is Maryland's oldest historically black university and one of the ten oldest in the country. 
Coppin State University,2500 W North Ave,Baltimore,MD ,10000,https://www.coppin.edu/,,20,28,Coppin State University is a public historically black university located in Baltimore| Maryland| United States. It is part of the University System of Maryland. The university is a member-school of the Thurgood Marshall College Fund.
Frostburg State University,101 Braddock Rd,Frostburg,MD ,15000,https://www.frostburg.edu/,,47,80,Frostburg State University is a public university in Frostburg| Maryland. The university is the only four-year institution of the University System of Maryland west of the Baltimore-Washington passageway in the state's Appalachian highlands.
Salisbury University,1101 Camden Ave,Salisbury,MD ,18000,http://www.salisbury.edu/,,67,74,Salisbury University offers 42 distinct undergraduate and 14 graduate degree programs across six academic units: the Fulton School of Liberal Arts| Perdue School of Business| Henson School of Science and Technology| Seidel School of Education and Professional Studies| College of Health and Human Services| and SU Honors College.
Towson University,8000 York Rd,Towson,MD ,18000,http://www.towson.edu/,,76,76,Towson University is a public university in Towson| Maryland. Founded in 1866 as Maryland's first training school for teachers| Towson University is a part of the University System of Maryland. Since founding| the university has evolved into eight subsidiary colleges and over 20|000 students.
University of Baltimore,1420 N Charles St,Baltimore,MD ,21000,http://www.ubalt.edu/,,61,78,The University of Baltimore is a public university in Baltimore| Maryland. It is part of the University System of Maryland. UB's schools and colleges provide education in business| law| public affairs| and the applied arts and sciences.
University of Maryland| Baltimore,620 W Lexington St,Baltimore,MD ,27000,http://www.umaryland.edu/,,95,61,The University of Maryland| Baltimore is a public university in Baltimore| Maryland. Founded in 1807| it comprises some of the oldest professional schools of dentistry| law| medicine| pharmacy| social work and nursing in the United States. 
University of Maryland| Baltimore County,1000 Hilltop Cir,Baltimore,MD ,19000,https://www.umbc.edu/,,64,61,The University of Maryland| Baltimore County College of Natural and Mathematical Sciences focuses in the areas of life science| including Biology| Chemistry| Biochemistry| Mathematics| Statistics| Marine Biology| and Physics.
University of Maryland Eastern Shore,11868 College Backbone Rd,Princess Anne,MD ,18000,http://www.umes.edu/,,36,65,"University of Maryland Eastern Shore is a public historically black land-grant research university in Princess Anne| Maryland. It is part of the University System of Maryland. It is classified among ""R2: Doctoral Universities – High research activity""."
University of Maryland Global Campus,1616 McCormick Dr,Largo,MD ,14000,http://www.umgc.edu/,,27,100,The University of Maryland Global Campus (UMGC) is a public university in Adelphi| Maryland and is largest of the University System of Maryland campuses. Established in 1947| UMGC focuses on online education in its classes and programs on campus in its Academic Center in Largo and at satellite campuses across the Baltimore-Washington Metropolitan Area| throughout Maryland| and across the world.
University of Massachusetts Amherst,University of Massachusetts Amherst,Amherst,MA ,21000,https://www.umass.edu/,,76,64,The University of Massachusetts Amherst is a public land-grant research university in Amherst| Massachusetts. Founded in 1863 as an agricultural college| it is the flagship and the largest campus in the University of Massachusetts system| as well as the first established.
University of Massachusetts Boston,100 William T Morrissey Blvd,Boston,MA ,13000,http://www.umb.edu/,,59,76,The University of Massachusetts Boston is a public research university in Boston| Massachusetts. It is the only public research university in Boston and the third-largest campus in the five-campus University of Massachusetts system. UMass Boston is the third most diverse university in the United States.
University of Massachusetts Dartmouth,285 Old Westport Rd,North Dartmouth,MA ,20000,http://www.umassd.edu/,,49,75,The University of Massachusetts Dartmouth is a public research university in Dartmouth| Massachusetts. It is the southernmost campuses of the University of Massachusetts system. Formerly Southeastern Massachusetts University| it was merged into the University of Massachusetts system in 1991.
University of Massachusetts Lowell,220 Pawtucket St,Lowell,MA ,19000,http://www.uml.edu/,,55,73,The University of Massachusetts Lowell is a public research university in Lowell| Massachusetts| with a satellite campus in Haverhill| Massachusetts. It is the northernmost member of the University of Massachusetts system and has been regionally accredited by the New England Commission of Higher Education since 1975.
University of Massachusetts Medical School,55 N Lake Ave,Worcester,MA ,36000,http://umassmed.edu/,,97,84,The University of Massachusetts Medical School (UMMS or UMass Worcester) is a public medical school in Worcester| Massachusetts. It is part of the University of Massachusetts (UMass) system.It is home to three schools: the School of Medicine| the Graduate School of Biomedical Sciences| and the Graduate School of Nursing| as well as a biomedical research enterprise and a range of public-service initiatives throughout the state.
Bridgewater State University,131 Summer St,Bridgewater,MA ,18000,http://www.bridgew.edu/,,58,88,Bridgewater State University is a public university with its main campus in Bridgewater| Massachusetts. It is the largest of nine state universities in Massachusetts.
Fitchburg State University,160 Pearl St,Fitchburg,MA ,17000,http://www.fitchburgstate.edu/,,53,88,Fitchburg State University is a public university in Fitchburg| Massachusetts. It has over 3|500 undergraduate and over 1650 graduate/continuing education students| for a total student body enrollment over 5200. The university offers undergraduate and graduate degrees in 25 academic disciplines. 
Framingham State University,100 State St,Framingham,MA ,19000,http://www.framingham.edu/,,55,74,Framingham State University is a public university in Framingham| Massachusetts. It offers undergraduate programs as well as graduate programs| including MBA| MEd| and MS.
Salem State University,352 Lafayette St,Salem,MA ,19000,https://www.salemstate.edu/,,51,86,Salem State University is a public university in Salem| Massachusetts. It was established in 1854 as Salem Normal School. As of 2013| Salem State enrolled 7|664 undergraduate and 1|637 graduate| full- and part-time students| from 27 states and 57 foreign countries.
Westfield State University,577 Western Ave,Westfield,MA ,18000,http://www.westfield.ma.edu/,,66,87,Westfield State University is a public university in Westfield| Massachusetts. It was founded in 1838 by Horace Mann as the first public co-educational college in America without barrier to race| gender| or economic class.
Worcester State University,486 Chandler St,Worcester,MA ,19000,https://www.worcester.edu/,,56,66,Worcester State University is a public university in Worcester| Massachusetts. One of 9 state universities in Massachusetts| Worcester State offers a liberal arts and sciences curriculum and enrolls nearly 5500 undergraduates and more than 900 graduate students. 
Central Michigan University,1200 S Franklin St,Mt Pleasant,MI ,16000,https://www.cmich.edu/Pages/default.aspx,,57,70,Central Michigan University is a public research university in Mount Pleasant| Michigan. Established in 1892| Central Michigan University has more than 20|000 students on its Mount Pleasant campus and 7|000 students enrolled online at more than 60 locations worldwide.
Eastern Michigan University,900 Oakwood St,Ypsilanti,MI ,15000,https://www.emich.edu/,,54,74,Eastern Michigan University is a public research university in Ypsilanti| Michigan| United States. The university was founded in 1849 as Michigan State Normal School. Today| the university is governed by an eight-member board of regents whose members are appointed by the governor of Michigan for eight-year terms.
Ferris State University,1201 S State St,Big Rapids,MI ,13000,http://www.ferris.edu/,,49,87,Ferris State University (FSU or Ferris) is a public university with its main campus in Big Rapids| Michigan. It was founded in 1884 as the Big Rapids Industrial School by Woodbridge Nathan Ferris| an educator from Tioga County| New York| who later served as governor of the State of Michigan and finally in the US Senate where he remained until his death in 1928.
Grand Valley State University,1 Campus Dr,Allendale,MI ,18000,https://gvsu.edu/,,66,83,Grand Valley State University (GVSU| GV| or Grand Valley) is a public university in Allendale| Michigan.The university also offers classes at a campus in downtown Grand Rapids| its international campus in Holland| and through Traverse City established in cooperation with local community colleges.
Lake Superior State University,650 W Easterday Ave,Sault Ste. Marie,MI ,11000,http://www.lssu.edu/,,74,57,Lake Superior State University (colloquially Lake State| Lake Superior State| Soo Tech| and LSSU) is a public university in Sault Ste. Marie| Michigan. It is Michigan's smallest public university| with an enrollment of approximately 2|000 students. Due to its proximity to the Canadian border| and the twin city of Sault Ste. Marie| Ontario| LSSU has many Canadian students and maintains a close relationship with its international neighbor.
University of Michigan,500 S State St,Ann Arbor,MI ,16000,https://umich.edu/,,91,23,The University of Michigan is a public research university in Ann Arbor| Michigan. Founded in 1817 in Detroit| as the Catholepistemiad| or the University of Michigania| 20 years before the territory became a state| the university is Michigan's oldest.
University of Michigan–Flint,303 E Kearsley St,Flint,MI ,13000,https://www.umflint.edu/,,50,66,The University of Michigan–Flint (U of M Flint) is a public university in Flint| Michigan. It is one of the two regional campuses of the University of Michigan operating under the policies of the Board of Regents. The University of Michigan in Ann Arbor is located 55 miles to the south
Michigan State University,426 Auditorium Road,East Lansing,MI ,19000,https://msu.edu/,,78,71,Michigan State University is a public land-grant research university in East Lansing| Michigan. MSU was founded in 1855 and served as a model for land-grant colleges and universities later created under the Morrill Act of 1862
Michigan Technological University,1400 Townsend Dr,Houghton,MI ,15000,https://www.mtu.edu/,,67,74,Michigan Technological University (Michigan Tech| MTU| or simply Tech) is a public research university in Houghton| Michigan. Its main campus sits on 925 acres (374 ha) on a bluff overlooking Portage Lake. Michigan Tech was founded in 1885 as the first post-secondary institution in the Upper Peninsula of Michigan and was created to train mining engineers to operate the local copper mines. 
Northern Michigan University,1401 Presque Isle Ave,Marquette,MI ,15000,http://www.nmu.edu/,,44,66,Northern Michigan University (NMU) is a public university in Marquette| Michigan. The university was established in 1899. With enrollment of about 8|000 undergraduate and graduate students| Northern Michigan University is the Upper Peninsula's largest university.
Oakland University,318 Meadow Brook Rd,Rochester,MI ,12000,http://www.oakland.edu/,,46,83,"Oakland University is a public research university in Auburn Hills and Rochester Hills| Michigan. It is the second largest university in the Detroit Metropolitan Area with 20|012 students and it is classified among ""R2: Doctoral Universities – High research activity."""
Saginaw Valley State University,7400 Bay Rd,University Center,MI ,15000,http://www.svsu.edu/,,39,73,Saginaw Valley State University is a public university in University Center| Michigan. It was founded in 1963 as Saginaw Valley College. It is located on 748 acres in Saginaw County's Kochville Township| approximately 5.5 miles north of downtown Saginaw.
Wayne State University,42 W Warren Ave,Detroit,MI ,14000,http://wayne.edu/,,38,73,Wayne State University is a public research university in Detroit| Michigan. It is Michigan's third-largest university. Founded in 1868| Wayne State consists of 13 schools and colleges offering approximately 350 programs to more than 26|000 graduate and undergraduate students.
Western Michigan University,1903 W Michigan Ave,Kalamazoo,MI ,19000,http://www.wmich.edu/,,52,80,"Western Michigan University is a public research university in Kalamazoo| Michigan. It was established in 1903 by Dwight B. Waldo. Its enrollment| as of the Fall 2019 semester| was 21|470. It is classified among ""R2: Doctoral Universities – High research activity""."
Bemidji State University,1500 Birchmont Dr NE,Bemidji,MN ,16000,http://www.bemidjistate.edu/,,45,65,Bemidji State University is a public university in Bemidji| Minnesota. Founded as a preparatory institution for teachers in 1919| it provides higher education to north-central Minnesota. It is part of the Minnesota State Colleges and Universities system.
Minnesota State University| Mankato,122 Taylor Center,Mankato,MN ,16000,http://www.mnsu.edu/,,52,63,Minnesota State University| Mankato| also known as Minnesota State| is a public university in Mankato| Minnesota. Established as the Second State Normal School in 1858| it was designated in Mankato in 1866| and officially opened as Mankato Normal School in 1868. 
Minnesota State University Moorhead,1104 7th Ave S,Moorhead,MN ,17000,https://www.mnstate.edu/,,41,65,Minnesota State University Moorhead is a public university in Moorhead| Minnesota. The school has an enrollment of 7|534 students in 2019 and 266 full-time faculty members. MSUM is a part of the Minnesota State Colleges and Universities system.
Metropolitan State University,700 E 7th St,St Paul,MN ,16000,https://www.metrostate.edu/,,48,56,Metropolitan State University is a public university in the Minneapolis–St. Paul| Minnesota metropolitan area. It is a member of the Minnesota State Colleges and Universities system. 
Southwest Minnesota State University,1501 State St,Marshall,MN ,14000,http://www.smsu.edu/,,49,64,Southwest Minnesota State University is a public university in Marshall| Minnesota. It is part of the Minnesota State Colleges and Universities System. The university has an enrollment of approximately 8|700 students and employs 148 faculty members.
St. Cloud State University,850 1st Ave,St Cloud,MN ,14000,https://www.stcloudstate.edu/default.aspx,,46,90,St. Cloud State University is a public university in St. Cloud| Minnesota. Founded in 1869| the university is one of the largest institutions in the Minnesota State Colleges and Universities system. Its enrollment in 2020 was approximately 16|000 students and it has over 120|000 alumni.
Winona State University,175 W Mark St,Winona,MN ,17000,http://www.winona.edu/,,59,68,Winona State University is a public university in Winona| Minnesota. Winona State University was founded as Winona Normal School in 1858 and is the oldest member of the Minnesota State Colleges and Universities System. It was the first normal school west of the Mississippi River. 
University of Minnesota,University of Minnesota,Minneapolis,MN ,17000,https://twin-cities.umn.edu/,,78,55,The University of Minnesota| Twin Cities is a public land-grant research university in the Twin Cities of Minneapolis and Saint Paul| Minnesota. The Twin Cities campus comprises locations in Minneapolis and St. Paul approximately 3 miles apart| and the St. Paul location is in neighboring Falcon Heights.
University of Minnesota Crookston,2900 University Ave,Crookston,MN ,11000,http://www.crk.umn.edu/,,53,68,The University of Minnesota Crookston is a public university in Crookston| Minnesota. One of five campuses in the University of Minnesota System| UMN Crookston had a fall 2018 enrollment of 1|834 undergraduate students. Students come from 20 countries and 40 states.
University of Minnesota Duluth,1049 University Dr,Duluth,MN ,17000,http://d.umn.edu/,,60,75,The University of Minnesota Duluth is a public university in Duluth| Minnesota. It is part of the University of Minnesota system and offers 16 bachelor's degrees in 87 majors| graduate programs in 24 different fields| and a two-year program at the School of Medicine and a four-year College of Pharmacy program.
University of Minnesota Morris,600 E 4th St,Morris,MN ,11000,http://morris.umn.edu/,,63,57,The University of Minnesota Morris is a public liberal arts college in Morris| Minnesota. It is part of the University of Minnesota system and was founded in 1960 as a public| co-educational| residential liberal arts college offering Bachelor of Arts degrees. 
University of Minnesota Rochester,111 Broadway Ave S Suite 300,Rochester,MN ,16000,http://www.r.umn.edu/,,55,60,The University of Minnesota Rochester is a public university in Rochester| Minnesota. It is part of the University of Minnesota system and focuses primarily on general health sciences. It was formally established by an act of the state legislature in December 2006.
Alcorn State University,1000 Asu Dr,Lorman,MS ,14000,http://alcorn.edu/,,31,58,Alcorn State University is a public historically black land-grant university in Lorman| Mississippi. It was founded in 1871 and was the first Black land grant college established in the United States. One of Alcorn's most notable alumni| Medgar Evers| a civil rights activist| graduated in 1952.
Delta State University,1003 W Sunflower Rd,Cleveland,MS ,13000,http://www.deltastate.edu/,,43,94,Delta State University (DSU) is a public university in Cleveland| Mississippi| in the Mississippi Delta.The school was established in 1924 by the State of Mississippi| using the facilities of the former Bolivar County Agricultural High School| which consisted of three buildings in Cleveland.
Jackson State University,1400 John R. Lynch St,Jackson,MS ,13000,http://www.jsums.edu/,,37,68,"Jackson State University (Jackson State or JSU) is a public historically black university in Jackson| Mississippi. It is one of the largest HBCUs in the United States and the fourth largest university in Mississippi. The university is a member of the Thurgood Marshall College Fund and classified among ""R2: Doctoral Universities – High research activity"""
Mississippi State University,75 B. S. Hood Road,Mississippi State,MS ,17000,http://msstate.edu/,,60,54,Mississippi State University for Agriculture and Applied Science| commonly known as Mississippi State University| is a public land-grant research university adjacent to Starkville| Mississippi.
Mississippi University for Women,1100 College St,Columbus,MS ,11000,http://www.muw.edu/,,65,97,Mississippi University for Women is a coeducational public university in Columbus| Mississippi. It was formerly the Industrial Institute and College for the Education of White Girls and later the Mississippi State College for Women.
Mississippi Valley State University,14000 US-82,Itta Bena,MS ,16000,http://mvsu.edu/,,61,65,Mississippi Valley State University is a public historically black university in Mississippi Valley State| Mississippi. MVSU is a member-school of the Thurgood Marshall College Fund.The institution| which opened in 1950| was created by the Mississippi Legislature as Mississippi Vocational College. 
University of Mississippi,University,University,MS ,14000,https://olemiss.edu/,,59,88,The University of Mississippi| colloquially known as Ole Miss| is a public research university in Oxford| Mississippi. Including the University of Mississippi Medical Center in Jackson| it is the state's largest university by enrollment and promotes itself as the state's flagship university.
University of Southern Mississippi,118 College Dr,Hattiesburg,MS ,14000,http://www.usm.edu/,,57,97,The University of Southern Mississippi is a public research university with its main campus in Hattiesburg| Mississippi. It is accredited by the Southern Association of Colleges and Schools to award bachelor's| master's| specialist| and doctoral degrees.
University of Central Missouri,116 W South St,Warrensburg,MO ,13000,http://www.ucmo.edu/,,51,65,The University of Central Missouri is a public university in Warrensburg| Missouri. In 2019| enrollment was 11|229 students from 49 states and 59 countries on its 1|561-acre campus. UCM offers 150 programs of study| including 10 pre-professional programs| 27 areas of teacher certification| and 37 graduate programs. 
Harris–Stowe State University,3026 Laclede Ave,St. Louis,MO ,11000,http://www.hssu.edu/,,6,52,Harris–Stowe State University is a historically black public university in St. Louis| Missouri. The university offers 50 majors| minors| and certificate programs in education| business| and arts & sciences. It is a member-school of the Thurgood Marshall College Fund.
Lincoln University (Missouri),820 Chestnut St,Jefferson City,MO ,11000,https://www.lincolnu.edu/,,21,100,Lincoln University is a public historically black land-grant university in Jefferson City| Missouri. Founded in 1866 by African-American veterans of the American Civil War| it is a member-school of the Thurgood Marshall College Fund.
University of Missouri,University of Missouri,Columbia,MO ,18000,https://missouri.edu/,,68,81,The University of Missouri is a public land-grant research university in Columbia| Missouri. It is Missouri's largest university and the flagship of the four-campus University of Missouri System. Founded in 1839| it was the first public university west of the Mississippi River. 
University of Missouri–Kansas City,5000 Holmes St,Kansas City,MO ,14000,http://www.umkc.edu/,,57,61,The University of Missouri–Kansas City is a public research university in Kansas City| Missouri. UMKC is part of the University of Missouri System and one of only two member universities with a medical school. As of 2015| the university's enrollment exceeded 16|000 students.
Missouri University of Science and Technology,Parker Hall| 106| 300 W 13th St,Rolla,MO ,14000,http://www.mst.edu/,,64,79,Missouri University of Science and Technology| or Missouri S&T| is a public research university in Rolla| Missouri. It is a member institution of the University of Missouri System. Most of its 8|096 students study engineering| business| sciences| and mathematics.
University of Missouri–St. Louis,1 University Blvd, St. Louis,MO ,11000,https://www.umsl.edu/,,57,73,The University of Missouri–St. Louis is a public research university in St. Louis County| Missouri. Established in 1963| it is one of four universities in the University of Missouri System and its newest.
Missouri Southern State University,3950 Newman Rd,Joplin,MO ,9600,http://www.mssu.edu/,,29,94,Missouri Southern State University is a public university in Joplin| Missouri| United States. It was established in 1937 as Joplin Junior College
Missouri State University,901 S National Ave,Springfield,MO ,17000,https://www.missouristate.edu/,,54,88,Missouri State University| formerly Southwest Missouri State University| is a public university in Springfield| Missouri. Founded in 1905 as the Fourth District Normal School| it is the state's second largest university campus by enrollment| with an official system enrollment of 23|502 in the fall semester of 2020.
Missouri Western State University,4525 Downs Dr,St Joseph,MO ,11000,http://www.missouriwestern.edu/,,29,100,Missouri Western State University is a public university in Saint Joseph| Missouri. As of 2019| the school enrolled 5|413 students.Missouri Western State University was founded in 1915 as a two-year institution called St. Joseph Junior College and held courses in the original location of Central High School at 13th and Patee.
Northwest Missouri State University,800 University Dr,Maryville,MO ,12000,https://www.nwmissouri.edu/,,49,73,Northwest Missouri State University is a public university in Maryville| Missouri. It has an enrollment of about 7|100 students. Founded in 1905 as a teachers college| its campus is based on the design for Forest Park at the 1904 St. Louis World's Fair and is the official Missouri State Arboretum.
Southeast Missouri State University,1 University Plaza,Cape Girardeau,MO ,13000,http://www.semo.edu/,,47,86,Southeast Missouri State University (SEMO) is a public university in Cape Girardeau| Missouri. The institution| having started as a normal school| has a traditional strength in teacher education. The recent addition of the River Campus| housing the Holland School College of Arts and Media| has increased the university's commitment to education in the arts.
Truman State University,100 E Normal Ave,Kirksville,MO ,12000,http://www.truman.edu/,,72,63,Truman State University is a public university in Kirksville| Missouri. It had 5|222 enrolled students in the fall of 2019. pursuing degrees in 50 undergraduate| and eight graduate programs. The university is named for U.S. President Harry Truman| who was a Missouri native.
Montana State University,Culbertson Hall| 100,Bozeman,MT ,18000,http://www.montana.edu/,,53,82,Montana State University is a public land-grant research university in Bozeman| Montana. It is the state's largest university. MSU offers baccalaureate degrees in 60 fields| master's degrees in 68 fields| and doctoral degrees in 35 fields through its nine colleges.
Montana State University Billings,1500 University Dr,Billings,MT ,14000,http://www.msubillings.edu/,,28,100,Montana State University Billings (or MSU Billings) is a public university in Billings| Montana. It is the state's third largest university. Its campus is located on 110 acres in downtown Billings.
Montana State University–Northern,300 13th St W,Havre,MT ,13000,http://www.msun.edu/,,31,100,Montana State University–Northern is a public university in Havre| Montana. It is part of the Montana University System and was Northern Montana College prior to the restructuring of Montana's public university system in 1994. It has an operating budget for fiscal year 2007 of $12.54 million.
University of Montana,32 Campus Dr,Missoula,MT ,15000,http://www.umt.edu/,,42,94,The University of Montana is a public research university in Missoula| Montana. UM is a flagship institution of the Montana University System and its second largest campus. UM reported 10|962 undergraduate and graduate students in the fall of 2018.
Montana Technological University,1300 W Park St,Butte,MT ,14000,https://www.mtech.edu/,,46,91,Montana Technological University is a public university in Butte| Montana. Founded in 1900 as the Montana State School of Mines| the university became affiliated with the University of Montana in 1994.
University of Montana Western,710 S Atlantic St,Dillon,MT ,13000,http://www.umwestern.edu/,,47,56,The University of Montana Western is a public university in Dillon| Montana. It is affiliated with the University of Montana and part of the Montana University System. The school was founded in 1893 as Montana State Normal School. The college was founded as a center for training teachers.
University of Nebraska–Lincoln,1400 R St,Lincoln,NE ,18000,http://www.unl.edu/,,67,78,The University of Nebraska–Lincoln is a public land-grant research university in Lincoln| Nebraska. It is the state's oldest university and the flagship institution of the University of Nebraska system.
University of Nebraska at Kearney,2504 9th Ave,Kearney,NE ,17000,http://unk.edu/,,57,85,The University of Nebraska at Kearney is a campus of the public University of Nebraska system and located in Kearney| Nebraska. It was founded in 1905 as the Nebraska State Normal School at Kearney.
University of Nebraska Omaha,6001 Dodge St,Omaha,NE ,14000,http://unomaha.edu/,,44,83,The University of Nebraska Omaha is a public research university in Omaha| Nebraska. Founded in 1908 by faculty from the Omaha Presbyterian Theological Seminary as a private non-sectarian college| the university was originally known as the University of Omaha.
University of Nebraska Medical Center,42nd and| Emile St,Omaha,NE ,11000,http://www.unmc.edu/,,96,100,The University of Nebraska Medical Center is a public medical school in Omaha| Nebraska. Founded in 1869 and chartered as a private medical college in 1881| UNMC became part of the University of Nebraska System in 1902.
University of Nevada| Reno,1664 N Virginia St,Reno,NV ,14000,https://www.unr.edu/,,53,88,The University of Nevada| Reno (Nevada| the University of Nevada| or UNR) is a public land-grant research university in Reno| Nevada. It was founded on October 12| 1874 in Elko| Nevada.It is home to the state's first medical school| the University of Nevada| Reno School of Medicine| with a campus in Nevada's major urban center in Reno and a health network that extends to much of rural Nevada.
University of Nevada| Las Vegas,4505 S Maryland Pkwy,Las Vegas,NV ,11000,https://www.unlv.edu/,,40,81,The University of Nevada| Las Vegas is a public land-grant research university in Paradise| Nevada. The 332-acre campus is about 1.6 mi east of the Las Vegas Strip. It was formerly part of the University of Nevada from 1957 to 1969.
Plymouth State University,17 High St,Plymouth,NH ,21000,http://www.plymouth.edu/,,54,85,Plymouth State University| formerly Plymouth State College| is a public university in the towns of Plymouth and Holderness| New Hampshire. It enrolls approximately 4|200 undergraduate students and 2|100 graduate students. The school was founded as Plymouth Normal School in 1871.
University of New Hampshire,105 Main St,Durham,NH ,23000,http://www.unh.edu/,,78,84,The University of New Hampshire is a public land-grant research university with its main campus in Durham| New Hampshire. It was founded and incorporated in 1866 as a land grant college in Hanover in connection with Dartmouth College| moved to Durham in 1893| and adopted its current name in 1923.
Kean University,1000 Morris Ave,Union,NJ ,19000,https://www.kean.edu/,,73,69,Kean University is a public university in Union and Hillside| New Jersey. It is part of New Jersey's public system of higher education. Kean University is best known for its programs in the humanities and social sciences and in education| graduating the most teachers in the state of New Jersey annually.
Montclair State University,1 Normal Ave,Montclair,NJ,20000,https://www.montclair.edu/,,65,76,Montclair State University is a public research university in Montclair| New Jersey| with parts of the campus extending into Little Falls| New Jersey. It is the second largest university in New Jersey.
New Jersey City University,2039 John F. Kennedy Blvd,Jersey City,NJ ,13000,http://www.njcu.edu/,,64,95,New Jersey City University is a public university in Jersey City| New Jersey. Originally chartered in 1927| New Jersey City University consists of the NJCU School of Business| College of Arts and Sciences| College of Education| and College of Professional Studies.
Ramapo College,505 Ramapo Valley Rd,Mahwah,NJ ,20000,https://www.ramapo.edu/,,73,66,Ramapo College of New Jersey is a public liberal arts college in Mahwah| New Jersey. It is part of New Jersey's public system of higher education. As of the spring 2018 semester| there were a total of 5|685 students enrolled at the college| including 483 graduate students. 
Rowan University,201 Mullica Hill Rd,Glassboro,NJ ,26000,https://www.rowan.edu/,,70,74,Rowan University is a public research university in Glassboro| New Jersey| with a medical campus in Stratford| New Jersey| and medical and academic campuses in Camden| New Jersey. It was founded in 1923 as Glassboro Normal School on a 25-acre site donated by 107 residents.
Rutgers University–New Brunswick,Rutgers University–New Brunswick,New Brunswick,NJ,21000,http://nb.rutgers.edu/,,80,61,Rutgers University–New Brunswick is one of three regional campuses of Rutgers University| New Jersey's public research university. It is located in New Brunswick and Piscataway. It is the oldest campus of the university| the others being in Camden and Newark. 
Rutgers University–Camden,303 Cooper St,Camden,NJ ,13000,http://www.camden.rutgers.edu/,,78,79,Rutgers University–Camden is one of three regional campuses of Rutgers University| New Jersey's public research university. It is located in Camden| New Jersey. Founded in 1929| Rutgers–Camden began as an amalgam of the South Jersey Law School and the College of South Jersey. 
Stockton University,101 Vera King Farris Dr,Galloway,NJ ,20000,https://stockton.edu/,,76,76,Stockton University is a public university in Galloway Township| New Jersey. It is part of New Jersey's public system of higher education. It is named for Richard Stockton| one of the New Jersey signers of the Declaration of Independence. Founded in 1969| Stockton accepted its charter class in 1971.
Thomas Edison State University,111 W State St,Trenton,NJ ,10000,http://www.tesu.edu/,,41,100,Thomas Edison State University is a public university in Trenton| New Jersey. It is a majority-online institution that serves the state's adult population. One of New Jersey's 11 public universities and colleges| Thomas Edison State University offers degrees at the undergraduate and graduate level. 
William Paterson University,300 Pompton Rd,Wayne,NJ ,16000,http://www.wpunj.edu/,,49,75,William Paterson University| officially William Paterson University of New Jersey| is a public university in Wayne| New Jersey. It is part of New Jersey's public system of higher education.
Eastern New Mexico University,1500 S Avenue K,Portales,NM ,10000,http://enmu.edu/,,36,58,Eastern New Mexico University is a public university with a main campus in Portales| New Mexico| and two associate degree-granting branches| one at Ruidoso and one at Roswell. ENMU is New Mexico's largest regional comprehensive university and is the most recently founded state university in New Mexico.
University of New Mexico,University of New Mexico,Albuquerque,NM ,14000,http://www.unm.edu/,,44,94,The University of New Mexico is a public research university in Albuquerque| New Mexico. Founded in 1889| UNM offers bachelor's| master's| doctoral| and professional degree programs. The Albuquerque campus encompasses over 600 acres| and there are branch campuses in Gallup| Los Alamos| Rio Rancho| Taos| and Los Lunas.
New Mexico Highlands University,1005 Diamond St,Las Vegas,NM ,10000,https://www.nmhu.edu/,,21,100,New Mexico Highlands University (NMHU) is a public university in Las Vegas| New Mexico.The university was first established as New Mexico Normal School in 1893| with the prominent archaeologist Edgar Lee Hewett serving as its first president.
New Mexico State University,1780 E University Ave,Las Cruces,NM ,7800,http://www.nmsu.edu/,,44,55,New Mexico State University is a public land-grant research university with its main campus in Las Cruces| New Mexico. Founded on September 17| 1888| it is the oldest public institution of higher education in the state of New Mexico and one of two flagship universities in New Mexico. 
New Mexico Institute of Mining and Technology,801 Leroy Pl,Socorro,NM ,14000,http://www.nmt.edu/,,49,80,The New Mexico Institute of Mining and Technology is a public university in Socorro| New Mexico. It offers over 30 bachelor of science degrees in technology| the sciences| engineering| management| and technical communication| as well as graduate degrees at the masters and doctoral levels.
Northern New Mexico College,1000 W College Ave,Silver City,NM ,3000,http://wnmu.edu/,,24,100,Western New Mexico University is a public university in Silver City| New Mexico. It was founded in 1893.Founded in the Territory of New Mexico on February 11| 1893 as the New Mexico Normal School| the school began to offer classes on September 3| 1894| in a rented Presbyterian church. 
University at Buffalo,University at Buffalo,Buffalo,NY ,17000,http://www.buffalo.edu/,,73,61,The State University of New York at Buffalo commonly referred to as University at Buffalo or SUNY Buffalo| is a public research university with campuses in Buffalo and Amherst| New York. The university was founded in 1846 as a private medical college and merged with the State University of New York system in 1962. 
University at Albany| SUNY,1400 Washington Ave,Albany,NY ,17000,https://www.albany.edu/,,66,54,The State University of New York at Albany| commonly referred to as University at Albany| SUNY Albany or UAlbany| is a public research university with campuses in the New York cities of Albany and Rensselaer and the Town of Guilderland
Binghamton University, 4400 Vestal Pkwy E,Binghamton,NY ,19000,http://binghamton.edu/,,82,41,The State University of New York at Binghamton is a public research university with campuses in Binghamton| Vestal| and Johnson City| New York. It is one of the four university centers in the State University of New York system. As of Fall 2020| 18|128 undergraduate and graduate students attend the university.
Stony Brook University,100 Nicolls Rd,Stony Brook,NY ,15000,https://www.stonybrook.edu/,,72,44,The State University of New York at Stony Brook| more commonly known as Stony Brook University| is a public research university in Stony Brook| New York. It is one of four university centers of the State University of New York system.
State University of New York Upstate Medical University,750 E Adams St,Syracuse,NY ,18000,http://www.upstate.edu/,,92,100,The State University of New York Upstate Medical University is a public medical school in Syracuse| New York. It is part of the State University of New York system.
State University of New York College of Environmental Science and Forestry,1 Forestry Dr,Syracuse,NY ,19000,http://www.esf.edu/,,74,70,The State University of New York College of Environmental Science and Forestry is a specialized| doctoral-degree granting institution in Syracuse| New York. It is part of the State University of New York system.
The College at Brockport| State University of New York,350 New Campus Dr,Brockport,NY ,16000,http://www.brockport.edu/,,69,55,The College at Brockport| State University of New York (also known as SUNY Brockport| Brockport State| College at Brockport| or the State University of New York at Brockport) is a public liberal arts college in Brockport| New York. It is a constituent college of the State University of New York (SUNY).
State University of New York College at Cortland,32 Graham Ave,Cortland,NY ,19000,http://cortland.edu/,,74,46,The State University of New York College at Cortland (SUNY Cortland or Cortland State College) is a public college in Cortland| New York. It is part of the State University of New York (SUNY) system.
State University of New York at Fredonia,280 Central Ave,Fredonia,NY ,15000,http://www.fredonia.edu/,,62,71,The State University of New York at Fredonia is a public university in Fredonia| New York. It is the westernmost member of the State University of New York.
State University of New York at Geneseo,1 College Cir,Geneseo,NY ,19000,https://www.geneseo.edu/,,81,65,The State University of New York College at Geneseo| is a public liberal arts college in Geneseo| New York. It is part of the State University of New York system. The college was founded in 1867 as the Geneseo Normal School before it became a state liberal arts college in 1948.
State University of New York at New Paltz,1 Hawk Dr,New Paltz,NY ,17000,http://www.newpaltz.edu/,,73,45,The State University of New York at New Paltz is a public university in New Paltz| New York. It traces its origins to the New Paltz Classical School| a secondary institution founded in 1828 and reorganized as an academy in 1833. 
State University of New York at Old Westbury, 223 Store Hill Road Campus Center H-310,Old Westbury,NY ,11000,http://www.oldwestbury.edu/,,60,78,The State University of New York College at Old Westbury is a public college in Old Westbury| New York| with portions in the neighboring town of Jericho| New York. It is part of the State University of New York system
State University of New York at Oneonta,108 Ravine Pkwy,Oneonta,NY ,17000,https://suny.oneonta.edu/,,72,56,The State University of New York College at Oneonta is a public liberal arts college in Oneonta| New York. It is part of the State University of New York system.
State University of New York at Oswego,7060 NY-104,Oswego,NY ,16000,https://www.oswego.edu/,,65,54,State University of New York at Oswego is a public college in the City of Oswego and Town of Oswego| New York. It has two campuses: historic lakeside campus in Oswego and Metro Center in Syracuse| New York.
State University of New York at Plattsburgh,101 Broad St,Plattsburgh,NY ,14000,https://www.plattsburgh.edu/,,63,58,The State University of New York College at Plattsburgh is a public liberal arts college in Plattsburgh| New York. The college was founded in 1889 and officially opened in 1890. The college is part of the State University of New York system and is accredited by the Middle States Commission on Higher Education. 
State University of New York at Potsdam,44 Pierrepont Ave,Potsdam,NY ,14000,http://potsdam.edu/,,51,68,The State University of New York at Potsdam is a public college in Potsdam| New York. It is the northernmost member of the State University of New York system. Founded in 1816| it is among the oldest colleges in the United States.
State University of New York at Purchase,735 Anderson Hill Rd,Purchase,NY ,18000,http://www.purchase.edu/,,62,52,"State University of New York at Purchase is a public college in Purchase| New York. It is one of 13 comprehensive colleges in the State University of New York system. It was founded by Governor Nelson Rockefeller in 1967 as ""the cultural gem of the SUNY system."""
State University of New York at Canton,34 Cornell Dr,Canton,NY ,14000,http://www.canton.edu/,,40,85,The State University of New York at Canton is a public four-year college in the Town of Canton| New York. The college offers 29 bachelor's degrees| 20 associate degrees and five one-year certificate programs
State University of New York at Cobleskill, 106 Suffolk Cir,Cobleskill,NY ,15000,http://www.cobleskill.edu/,,42,54,State University of New York College of Agriculture and Technology at Cobleskill (SUNY Cobleskill) is a public college in Cobleskill| New York. It is part of the State University of New York (SUNY) system and offers degrees in agriculture and technology; business and computer technology; culinary arts| hospitality and tourism; early childhood; and liberal arts and sciences. 
State University of New York at Delhi,454 Delhi Dr,Delhi,NY ,15000,http://www.delhi.edu/,,45,72,The State University of New York at Delhi is a public college in the Town of Delhi| New York. It is part of the State University of New York system. Over 3|000 students attend the institution.
Appalachian State University,John E. Thomas Hall| 287 Rivers St,Boone,NC ,14000,https://appstate.edu/,,70,77,Appalachian State University is a public university in Boone| North Carolina. It was founded as a teachers college in 1899 by brothers B.B. and D.D. Dougherty and D.D.’s wife| Lillie Shull Dougherty. The university expanded to include other programs in 1967 and joined the University of North Carolina System in 1971.
East Carolina University,E 5th St,Greenville,NC ,17000,https://www.ecu.edu/,,60,79,East Carolina University is a public research university in Greenville| North Carolina. It is the fourth largest university in North Carolina. Founded on March 8| 1907| as a teacher training school| East Carolina has grown from 43 acres to almost 1|600 acres today.
Elizabeth City State University,1704 Weeksville Rd,Elizabeth City,NC ,3300,http://www.ecsu.edu/,,37,66,Elizabeth City State University (ECSU) is a public| historically black college in Elizabeth City| North Carolina. ECSU| which enrolls nearly 2|500 students in 28 undergraduate programs and 4 graduate programs| is a member-school of the Thurgood Marshall College Fund| as well as a member-institution of the University of North Carolina system.
Fayetteville State University,1200 Murchison Rd,Fayetteville,NC ,5800,http://www.uncfsu.edu/,,57,69,Fayetteville State University is a historically black public regional university in Fayetteville| North Carolina. FSU is part of the University of North Carolina System and the Thurgood Marshall College Fund.
North Carolina A&T State University,1601 E Market St,Greensboro,NC ,10000,http://www.ncat.edu/,,43,58,North Carolina Agricultural and Technical State University is a public| historically black land-grant research university in Greensboro| North Carolina. It is a constituent institution of the University of North Carolina System
North Carolina Central University,1801 Fayetteville St,Durham,NC ,13000,http://www.nccu.edu/,,42,68,North Carolina Central University| a state-supported liberal arts institution| is a public| historically black university in Durham| North Carolina. Founded by Dr. James E. Shepard in affiliation with the Chautauqua movement in 1909| it was supported by private funds from both Northern and Southern philanthropists.
North Carolina State University,North Carolina State University,Raleigh,NC ,16000,http://www.ncsu.edu/,,77,45,North Carolina State University is a public land-grant research university in Raleigh| North Carolina. Founded in 1887 and part of the University of North Carolina system| it is the largest university in the Carolinas.
University of North Carolina at Asheville,Karpen Hall,Asheville,NC ,13000,https://www.unca.edu/,,61,84,The University of North Carolina Asheville is a public liberal arts university in Asheville| North Carolina. UNC Asheville is the only designated liberal arts institution in the University of North Carolina system. UNC Asheville is a member of the Council of Public Liberal Arts Colleges.
University of North Carolina at Chapel Hill,University of North Carolina at Chapel Hill,Chapel Hill,NC,14000,http://www.unc.edu/,,91,23,The University of North Carolina at Chapel Hill is a public research university in Chapel Hill| North Carolina. The flagship of the University of North Carolina system| it is considered to be a Public Ivy| or a public institution which offers an academic experience equivalent to an Ivy League university. 
University of North Carolina at Charlotte,9201 University City Blvd,Charlotte,NC ,17000,http://www.uncc.edu/,,56,65,The University of North Carolina at Charlotte (UNC Charlotte| or simply Charlotte) is a public research university in Charlotte| North Carolina. UNC Charlotte offers 24 doctoral| 66 master's| and 79 bachelor's degree programs through nine colleges
University of North Carolina at Greensboro, 1400 Spring Garden St,Greensboro,NC ,12000,http://www.uncg.edu/,,54,82,The University of North Carolina at Greensboro is a public research university in Greensboro| North Carolina. It is part of the University of North Carolina system. UNCG| like all members of the UNC system| is a stand-alone university and awards its own degrees.
University of North Carolina at Pembroke, 1 University Drive,Pembroke,NC ,12000,http://www.uncp.edu/,,36,85,The University of North Carolina at Pembroke is a public university in Pembroke| North Carolina. UNC Pembroke is a master's level degree-granting university and part of the University of North Carolina system. Its history is intertwined with that of the Lumbee nation.
University of North Carolina Wilmington,601 S College Rd,Wilmington,NC ,19000,http://uncw.edu/,,72,65,"The University of North Carolina Wilmington a public research university in Wilmington| North Carolina. It is part of the University of North Carolina System and enrolls 17|499 undergraduate and graduate students each year. It is classified among ""R2: Doctoral Universities – High research activity""."
University of North Carolina School of the Arts, 1 University Way,Cullowhee,NC ,16000,http://www.wcu.edu/,,56,69,Western Carolina University is a public university in Cullowhee| North Carolina. It is part of the University of North Carolina system. The fifth oldest institution of the sixteen four-year universities in the UNC system| WCU was founded to educate the people of the western North Carolina mountains
Winston-Salem State University,601 S Martin Luther King Jr Dr,Winston-Salem,NC ,12000,http://www.wssu.edu/,,71,68,Winston-Salem State University is a historically black public university in Winston-Salem| North Carolina. It is part of the University of North Carolina. 
Dickinson State University,291 Campus Dr,Dickinson,ND ,12000,https://dickinsonstate.edu/,,32,100,Dickinson State University is a public university in Dickinson| North Dakota. It is part of the North Dakota University System. It was founded in 1918 as Dickinson State Normal School and granted full university status in 1987.
Mayville State University,330 3rd St NE,Mayville,ND ,12000,http://www.mayvillestate.edu/,,31,70,Mayville State University (MSU or MaSU) is a public university in Mayville| North Dakota. It is part of the North Dakota University System.Founded as a normal school by provision of the North Dakota Constitution in 1889| Mayville State was granted 30|000 acres (120 km²) of land and organized by the first Legislative Assembly.
Minot State University,500 University Ave W,Minot,ND ,11000,http://www.minotstateu.edu/,,41,67,Minot State University is a public university in Minot| North Dakota. Founded in 1913 as a normal school| Minot State University is the third-largest university in North Dakota| offering undergraduate and graduate degree programs.
University of North Dakota,University of North Dakota,Grand Forks,ND ,16000,https://und.edu/,,55,81,The University of North Dakota is a public research university in Grand Forks| North Dakota. Established by the Dakota Territorial Assembly in 1883| six years before the establishment of the state of North Dakota| it is the state's oldest university.
North Dakota State University,1340 Administration Ave,Fargo,ND ,16000,https://www.ndsu.edu/,,55,94,North Dakota State University of Agriculture and Applied Sciences| more commonly known as North Dakota State University| is a public land-grant research university in Fargo| North Dakota. It was founded as North Dakota Agricultural College in 1890 as the state's land-grant university. 
Valley City State University,101 College St SE,Valley City,ND ,12000,http://www.vcsu.edu/,,34,76,Valley City State University (VCSU) is a public university in Valley City| North Dakota. It is part of the North Dakota University System. Founded in 1890 as Valley City State Normal School| a two-year teachers' college| it was authorized to confer bachelor's degrees in 1921 and changed its name to Valley City State Teachers College. 
University of Akron,302 E Buchtel Ave,Akron,OH ,17000,https://uakron.edu/,,38,73,"The University of Akron is a public research university in Akron| Ohio. It is part of the University System of Ohio. As a STEM-focused institution| it focuses on industries such as polymers| advanced materials| and engineering. It is classified among ""R2: Doctoral Universities – High research activity""."
Bowling Green State University,Bowling Green State University,Bowling Green,OH ,18000,https://www.bgsu.edu/,,54,72,Bowling Green State University is a public research university in Bowling Green| Ohio. The 1|338-acre main academic and residential campus is 15 miles south of Toledo| Ohio.
Central State University,1400 Brush Row Rd,Wilberforce,OH ,13000,http://www.centralstate.edu/,,24,57,Central State University is a public| historically black land-grant university in Wilberforce| Ohio. It is a member-school of the Thurgood Marshall College Fund. 
University of Cincinnati,2600 Clifton Ave,Cincinnati,OH ,23000, https://www.uc.edu/,,66,77,The University of Cincinnati is a public research university in Cincinnati| Ohio. Founded in 1819 as Cincinnati College| it is the oldest institution of higher education in Cincinnati and has an annual enrollment of over 44|000 students| making it the second largest university in Ohio.
Cleveland State University,2121 Euclid Ave,Cleveland,OH ,15000,http://www.csuohio.edu/,,56,94,Cleveland State University is a public research university in Cleveland| Ohio. It was established in 1964 and opened for classes in 1965 after acquiring the entirety of Fenn College| a private school that had been in operation since 1923. CSU absorbed the Cleveland-Marshall College of Law in 1969.
Kent State University,800 E Summit St,Kent,OH ,18000,http://www.kent.edu/,,55,86,Kent State University is a public research university in Kent| Ohio. The university also includes seven regional campuses in Northeast Ohio and additional facilities in the region and internationally.
Miami University,501 E High St,Oxford,OH ,22000,https://www.miamioh.edu/,,78,80,Miami University is a public research university in Oxford| Ohio. The university was founded in 1809| making it the second-oldest university in Ohio and the 10th oldest public university in the United States.
Ohio State University,281 W Lane Ave,Columbus,OH ,18000,https://www.osu.edu/,,83,54,The Ohio State University| commonly Ohio State or OSU| is a public land-grant research university in Columbus| Ohio. It was founded in 1870 as the state's land-grant university and the ninth university in Ohio with the Morrill Act of 1862. 
Ohio University,Ohio University,Athens,OH ,22000,http://www.ohio.edu/,,62,82,Ohio University is a public research university in Athens| Ohio. The first university chartered by an Act of Congress and the first to be chartered in Ohio| it was chartered in 1787 by the Congress of the Confederation and subsequently approved for the territory in 1802 and state in 1804| opening for students in 1809
Shawnee State University,940 2nd St,Portsmouth,OH,15000,http://www.shawnee.edu/,,24,99,Shawnee State University is a public university in Portsmouth| Ohio. Established in 1986| Shawnee State is an open admissions university. It is the southernmost member of the University System of Ohio. 
University of Toledo,2801 Bancroft St,Toledo,OH ,16000,http://www.utoledo.edu/,,41,96,The University of Toledo (UToledo or UT) is a public research university in Toledo| Ohio. It is the northernmost campus of the University System of Ohio.The university also operates a 450-acre (180 ha) Health Science campus| which includes the University of Toledo Medical Center| in the West Toledo neighborhood of Toledo; a 160-acre (65 ha) satellite campus in the Scott Park neighborhood of Toledo
Wright State University,3640 Colonel Glenn Hwy,Dayton,OH ,16000,http://www.wright.edu/,,34,95,Wright State University is a public research university in Dayton| Ohio| with an additional branch campus on Grand Lake St. Marys. Originally a branch campus of Miami University and Ohio State University| Wright State became an independent institution in 1967 and was named in honor of the aviation pioneers Orville and Wilbur Wright| who were residents of nearby Dayton.
Youngstown State University,1 University Plaza,Youngstown,OH ,12000,http://www.ysu.edu/,,29,67,Youngstown State University is a public university in Youngstown| Ohio. Founded in 1908| it became known as Youngstown College in 1931 and sought accreditation through the North Central Association in 1944. As educational needs in the Mahoning Valley changed| Youngstown College grew significantly.
Cameron University,2800 W Gore Blvd,Lawton,OK ,9500,http://www.cameron.edu/,,21,100,Cameron University is a public university in Lawton| Oklahoma. It offers more than 50 degrees through two-year| four-year| and graduate programs. The degree programs emphasize the liberal arts| science and technology| and graduate and professional studies.
University of Central Oklahoma,100 N University Dr,Edmond,OK ,17000,https://www.uco.edu/,,36,84,The University of Central Oklahoma is a public university in Edmond| Oklahoma. It is the third largest university in Oklahoma| with more than 17|000 students and approximately 434 full-time and 400 adjunct faculty.
East Central University,1100 E 14th St,Ada,OK ,10000,http://www.ecok.edu/,,33,59,East Central University is a public university in Ada| Oklahoma. It is part of Oklahoma's Regional University System. Beyond its flagship campus in Ada| the university has courses available in McAlester| Shawnee| and Durant| as well as online courses. 
Langston University,701 Sammy Davis Jr Dr,Langston,OK ,14000,http://www.langston.edu/,,10,55,Langston University (LU) is a public land-grant historically black university in Langston| Oklahoma. It is the only historically black college in the state. Though located in a rural setting 10 miles (16 km) east of Guthrie| Langston also serves an urban mission| with University Centers in both Tulsa (at the same campus as the OSU-Tulsa facility) and Oklahoma City| and a nursing program set to open in Ardmore. 
Northeastern State University,600 N Grand Ave,Tahlequah,OK ,9400,http://www.nsuok.edu/,,26,100,Northeastern State University (NSU) is a public university with its main campus in Tahlequah| Oklahoma. The university also has two other campuses in Muskogee and Broken Arrow as well as online. Northeastern is the oldest institution of higher learning in the state of Oklahoma as well as one of the oldest institutions of higher learning west of the Mississippi River.
Northwestern Oklahoma State University,709 Oklahoma Blvd,Alva,OK ,9400,https://www.nwosu.edu/,,24,63,Northwestern Oklahoma State University (NWOSU) is a public university in Alva| Oklahoma| with satellite campuses in Enid and Woodward. It offers both bachelor's and master's degrees.In 1897| a normal school| or school for teachers| was established in Alva by an act of the Oklahoma Territorial Legislature. It was the second normal school in Oklahoma| charged with preparing teachers to serve the many one-room schoolhouses that covered the prairie. 
University of Oklahoma,660 Parrington Oval,Norman,OK ,21000,http://www.ou.edu/,,67,80,The University of Oklahoma is a public research university in Norman| Oklahoma. Founded in 1890| it had existed in Oklahoma Territory near Indian Territory for 17 years before the two became the state of Oklahoma. In Fall 2018 the university had 31|702 students enrolled| most at its main campus in Norman.
Oklahoma Panhandle State University,323 Eagle Blvd,Goodwell,OK ,8300,http://www.opsu.edu/,,25,90,Oklahoma Panhandle State University is a public college in Goodwell| Oklahoma. OPSU is a baccalaureate degree-granting institution. General governance of the institution is provided by the Board of Regents of the Oklahoma Agricultural and Mechanical Colleges.
Oklahoma State University–Stillwater,Oklahoma State University–Stillwater,Stillwater,OK,15000,https://go.okstate.edu/,,63,70,Oklahoma State University is a public land-grant research university in Stillwater| Oklahoma. OSU was founded in 1890 under the Morrill Act. Originally known as Oklahoma Agricultural and Mechanical College| it is the flagship institution of the Oklahoma State University System.
Rogers State University,1701 W Will Rogers Blvd,Claremore,OK ,14000,http://www.rsu.edu/,,22,89,Rogers State University (RSU) is a public university in Claremore| Oklahoma| United States. It also has branch campuses in Bartlesville| and Pryor Creek.The institution that is now RSU has gone through several stages| from its foundation as a state-sponsored preparatory school to its transition to a military academy| and finally to its current incarnation as a four-year regional university.
University of Science and Arts of Oklahoma,1727 W Alabama Ave,Chickasha,OK ,7900,http://usao.edu/,,37,64,The University of Science and Arts of Oklahoma is a public liberal arts university in Chickasha| Oklahoma. It is the only public college in Oklahoma with a strictly liberal arts–focused curriculum and is a member of the Council of Public Liberal Arts Colleges.
Southeastern Oklahoma State University,425 W University Blvd,Durant,OK ,8500,http://www.se.edu/,,22,74,Southeastern Oklahoma State University (Southeastern| SE| or SOSU) is a public university in Durant| Oklahoma. It had an undergraduate enrollment of 4|824 in 2019.
Southwestern Oklahoma State University,100 W Campus Dr,Weatherford,OK ,12000,https://www.swosu.edu/,,27,91,Southwestern Oklahoma State University (SWOSU) is a public university in Weatherford and Sayre| Oklahoma. It is one of six Regional University System of Oklahoma members.SWOSU was first established through an act of the Oklahoma Territorial Legislature in 1901 as Southwestern Normal School| although no classes were held until 1903.
University of Oregon,1585 E 13th Ave,Eugene,OR ,16000,http://www.uoregon.edu/,,72,82,The University of Oregon is a public flagship research university in Eugene| Oregon| United States. Founded in 1876| the institution's 295-acre campus is along the Willamette River. Since July 2014| UO has been governed by the Board of Trustees of the University of Oregon.
Oregon Health and Science University,3181 S.W. Sam Jackson Park Road,Portland,OR ,27000,https://www.ohsu.edu/,,89,97,Oregon Health & Science University (OHSU) is a public research university in Oregon entirely dedicated to health sciences with a main campus| including two hospitals| in Portland| Oregon. The institution was founded in 1887 as the University of Oregon Medical Department and later became the University of Oregon Medical School.
